Gas_Stations_Address,Latitude,Longitude,Pincode,Pincode( frst 3 characters),Latitiude of the nearest Fast Charger,Longitude of the nearest fast charger,Distance with the nearest fast EV charger
Aachener Stra√üe 1095 ¬∑ 50858 Koeln,50.9378666,6.8562733,50858,508,50.960305,6.93333,5.946848472
Max-Planck Stra√üe 9 ¬∑ 50858 K√∂ln-Marsdorf,50.9219503,6.8531426,50858,508,50.960305,6.93333,7.053754004
K√∂lner Stra√üe 209-211 ¬∑ 50226 Frechen,50.9129076,6.8265563,50226,502,50.937077,6.779441,4.257709297
Alkenrather Stra√üe 67-69 ¬∑ 51377 Leverkusen,51.0435307,7.0276429,51377,513,51.087205,7.103597,7.194059127
Borsigstra√üe 22 ¬∑ 51381 Leverkusen,51.077701,7.0383204,51381,513,51.087205,7.103597,4.680616452
Kabeler Stra√üe 25 ¬∑ 58099 Hagen,51.4084896,7.4786066,58099,580,51.377904,7.452426,3.855663604
Friedrich-Ebert-Stra√üe 1a ¬∑ 50374 Erftstadt,50.8382015,6.7929853,50374,503,50.84549667,6.913742423,8.517734676
Gleueler Stra√üe 19 ¬∑ 50226 Frechen,50.8965078,6.8238022,50226,502,50.937077,6.779441,5.479143685
Hauptstra√üe 258 ¬∑ 66287 Quierschied,49.3456451,7.0343347,66287,662,49.346209,6.934792,7.211387884
Herdecker Stra√üe 20 ¬∑ 58089 Hagen,51.3884733,7.4429369,58089,580,51.377904,7.452426,1.347171065
Humeskreuz 1 ¬∑ 66557 Illingen,49.3856149,7.03283,66557,665,49.187444,7.370269,32.93265682
Wolfskuehler Weg 1a ¬∑ 58089 Hagen,51.3828565,7.4352864,58089,580,51.377904,7.452426,1.310811366
Volkhovener Weg 117 ¬∑ 50767 K√∂ln,51.0074818,6.8976139,50767,507,50.963081,6.955304,6.378325876
Konrad-Hausmann-Stra√üe 2 ¬∑ 50767 K√∂ln,51.0005325,6.881763,50767,507,50.963081,6.955304,6.621666094
Hochwaldstra√üe 29 ¬∑ 66620 Nonnweiler-Otzenhausen,49.6037881,6.9873024,66620,666,49.476201,6.6059464,30.95911804
Lichtendorfer Stra√üe 152 ¬∑ 44289 Dortmund,51.4808882,7.5958117,44289,442,51.473892,7.439345,10.86395767
Schwerter Stra√üe 1 ¬∑ 59439 Holzwickede Hengsen,51.4753512,7.6271017,59439,594,51.550004,7.927231,22.36671984
Spenrather Weg 1 ¬∑ 50829 K√∂ln,50.9799118,6.8469215,50829,508,50.960305,6.93333,6.431328657
Reichshofstra√üe 150 ¬∑ 58239 Schwerte,51.4289295,7.5656315,58239,582,51.297259,7.358371432,20.52861955
Kamen Karree 10 ¬∑ 59174 Kamen,51.5680383,7.6743603,59174,591,51.569984,7.67309,0.233487879
Schattweg 8 ¬∑ 59174 Kamen,51.5698743,7.6759926,59174,591,51.569984,7.67309,0.200981412
Lebacher Stra√üe 65 ¬∑ 66571 Eppelborn,49.419392,7.0050004,66571,665,49.187444,7.370269,36.96733645
Untere Lindenstra√üe 1 ¬∑ 58089 Hagen,51.3828791,7.4350096,58089,580,51.377904,7.452426,1.329312392
K√∂lner Stra√üe 111 ¬∑ 50859 K√∂ln,,,50859,508,50.960305,6.93333,5704.217922
Duerener Stra√üe 415 ¬∑ 50858 Koeln,50.9214426,6.862157,50858,508,50.960305,6.93333,6.598647905
Weststra√üe 10 ¬∑ 58089 Hagen,51.3791152,7.4374171,58089,580,51.377904,7.452426,1.050360448
Schwerter Stra√üe 161 ¬∑ 58099 Hagen-Boele,51.3958597,7.4696625,58099,580,51.377904,7.452426,2.32743298
Trierer Stra√üe 148 ¬∑ 54411 Hermeskeil,49.6627383,6.9233934,54411,544,49.7375,7.0828,14.16126902
Autohof Nord-Lippe Stra√üe 44 ¬∑ 59368 Werne-Stockum,51.6986514,7.6731418,59368,593,51.764162,7.397249,20.34881223
Wandhofener Stra√üe 9 ¬∑ 58099 Hagen,51.4066438,7.4795043,58099,580,51.377904,7.452426,3.707089716
Vogelsanger Stra√üe 37 ¬∑ 58300 Wetter,51.3548473,7.3747327,58300,583,51.387813,7.386103,3.749629137
Ruhrtalstra√üe 5 ¬∑ 58099 Hagen,51.3981699,7.4694954,58099,580,51.377904,7.452426,2.545787279
Hoerder Stra√üe 30 ¬∑ 58239 Schwerte,51.4504993,7.5625219,58239,582,51.297259,7.358371432,22.16184247
Hohestra√üe 66 ¬∑ 51399 Burscheid,51.0836349,7.1249124,51399,513,51.087205,7.103597,1.54086019
Willinghusener Weg 1 ¬∑ 22113 Oststeinbek,53.5466188,10.1554386,22113,221,53.542346,10.092252,4.201803965
H√∂henkamp 3 ¬∑ 22145 Braak,53.6097988,10.244846,22145,221,53.542346,10.092252,12.56003442
Werkstra√üe 2 ¬∑ 44267 Dortmund,51.4578808,7.5261488,44267,442,51.473892,7.439345,6.27112569
Werner Stra√üe 9 ¬∑ 59368 Werne,51.6718903,7.6874756,59368,593,51.764162,7.397249,22.47230253
Harkortstra√üe 4 ¬∑ 48163 M√ºnster,51.9241832,7.5616778,48163,481,51.964164,7.63198,6.556258688
Schwalbenweg 2 ¬∑ 53947 Nettersheim,50.4980468,6.6751892,53947,539,50.557359,6.765488,9.178187042
Neuenkirchener Stra√É¬üe 8 ¬∑ 49451 Holdorf,52.5838399,8.1161899,49451,494,52.7044842,8.493313,28.76392645
Feiningerstra√üe 1 ¬∑ 22115 Hamburg,53.52988,10.1426546,22115,221,53.542346,10.092252,3.607769778
M√∂llner Landstra√üe 4 ¬∑ 22113 Oststeinbek,53.5422138,10.1699453,22113,221,53.542346,10.092252,5.133628818
Burger Stra√üe 44 ¬∑ 42929 Wermelskirchen,51.1362833,7.2017138,42929,429,51.135328,7.208532,0.487436188
Brennerhof 6 ¬∑ 22113 Hamburg,53.5026452,10.0811702,22113,221,53.542346,10.092252,4.474898887
Stader Stra√üe 24 ¬∑ 27419 Sittensen,53.2897586,9.5072532,27419,274,53.850924,8.715758,81.39359844
Von-Siemens-Stra√üe 1 ¬∑ 49393 Lohne,52.6582157,8.1685343,49393,493,52.60773,8.37227,14.85122796
Steinfurter Stra√üe 24 ¬∑ 59387 Ascheberg,51.7984267,7.6442427,59387,593,51.764162,7.397249,17.413218
Sieker Landstra√üe 178 ¬∑ 22927 Gro√ühansdorf,53.654579,10.2607717,22927,229,53.669078,10.231072,2.535464204
Hoehestra√üe 51 ¬∑ 51399 Burscheid,51.077714,7.124521,51399,513,51.087205,7.103597,1.802786739
D√ºnweg 55 ¬∑ 51399 Burscheid,51.077714,7.124521,51399,513,51.087205,7.103597,1.802786739
Benzstra√üe 17 ¬∑ 49076 Osnabr√ºck,52.2900634,7.9656292,49076,490,52.2727,8.04506,5.738038462
Jesinghauser Stra√üe 110 ¬∑ 42389 Wuppertal,51.2820203,7.2507608,42389,423,52.4172212,13.2864312,433.2185133
Huenger 12 ¬∑ 42929 Wermelskirchen,51.1385231,7.1900187,42929,429,51.135328,7.208532,1.339651822
Andreas Meyer Stra√üe 63 ¬∑ 22113 Hamburg,53.5122335,10.0888627,22113,221,53.542346,10.092252,3.355843383
Wiedaustra√üe 101 ¬∑ 48163 M√ºnster,51.8939868,7.5837039,48163,481,51.964164,7.63198,8.4763947
Lenneper Stra√üe 72 ¬∑ 42289 Wuppertal,51.2627977,7.2330586,42289,422,51.27233,7.20692,2.104890441
Steinbuecheler Stra√üe 48 ¬∑ 51377 Leverkusen,51.0509926,7.0634081,51377,513,51.087205,7.103597,4.909105227
Roxeler Stra√üe 556 ¬∑ 48161 M√ºnster,51.952998,7.534574,48161,481,51.964164,7.63198,6.788931342
Aachener Stra√üe 1100 ¬∑ 50858 K√∂ln,50.9378666,6.8562733,50858,508,50.960305,6.93333,5.946848472
Zum Hansa-Center 2 ¬∑ 49451 Holdorf,52.59739,8.1178318,49451,494,52.7044842,8.493313,27.98901958
S√ºlzb√ºhrener Stra√üe 7 ¬∑ 49685 Emstek,52.8272215,8.2014962,49685,496,52.79542487,7.859451771,23.25936622
An Der Autobahn 6 ¬∑ 27404 Bockel,53.1921053,9.2882429,27404,274,53.850924,8.715758,82.45493181
Trierer Stra√üe 97 ¬∑ 54411 Hermeskeil,49.6573826,6.9332856,54411,544,49.7375,7.0828,13.96437844
H√∂rder Stra√üe 89 ¬∑ 58239 Schwerte,51.4289295,7.5656315,58239,582,51.297259,7.358371432,20.52861955
Herdecker Stra√üe 14 ¬∑ 58089 Hagen,51.3884733,7.4429369,58089,580,51.377904,7.452426,1.347171065
Hansastra√üe 145 ¬∑ 59427 Unna,51.5384285,7.6481486,59427,594,51.550004,7.927231,19.34232869
Henleinstra√üe 1 ¬∑ 28816 Stuhr,53.0063839,8.7178351,28816,288,53.036745,8.724367,3.404151789
Auf Der Brooke 2 ¬∑ 27404 Zeven-Elsdorf,53.2304084,9.3427542,27404,274,53.850924,8.715758,80.48055295
Bremer Stra√üe 117a ¬∑ 28816 Stuhr,53.030618,8.8051635,28816,288,53.036745,8.724367,5.445371461
Henry-Everling-Str 5 ¬∑ 59174 Kamen,51.5848683,7.6686445,59174,591,51.569984,7.67309,1.683326715
Longericher Stra√üe 543 ¬∑ 50739 K√∂ln,50.9815235,6.9210978,50739,507,50.963081,6.955304,3.153069652
Viktoriastra√üe 5 ¬∑ 42929 Wermelskirchen,51.1349885,7.2000673,42929,429,51.135328,7.208532,0.591814389
Saarbr√ºcker Stra√üe 175 ¬∑ 66557 Illingen-Uchtelfange,49.3764317,7.0192252,66557,665,49.187444,7.370269,33.0150739
Harmer Stra√üe 45 ¬∑ 49456 Bakum,52.719091,8.169251,49456,494,52.7044842,8.493313,21.89063808
Rudolf-Diesel-Stra√üe 2 ¬∑ 54516 Wittlich,49.9812067,6.9055574,54516,545,49.975413,6.887132,1.466613625
Gewerbestra√üe 1 ¬∑ 21279 Hollenstedt,53.3611967,9.7062984,21279,212,53.4102571,9.9896615,19.56825193
Delmenhorster Stra√üe 208 ¬∑ 28816 Stuhr,52.9948792,8.735959,28816,288,53.036745,8.724367,4.719405956
Tostedter Stra√üe 1 ¬∑ 21279 Hollenstedt,53.3618538,9.7110038,21279,212,53.4102571,9.9896615,19.24806593
Gluesinger Stra√üe 44 ¬∑ 21217 Seevetal,53.4129196,10.0177957,21217,212,53.4102571,9.9896615,1.888066034
Bremer Stra√üe 112 ¬∑ 28816 Stuhr,53.0288707,8.807611,28816,288,53.036745,8.724367,5.634795872
Schmedehausener Stra√üe 43 ¬∑ 48268 Greven,52.097686,7.6694985,48268,482,51.863606,7.370407,33.12221484
Bremer Stra√üe 65 ¬∑ 21224 Rosengarten,53.4550124,9.9768716,21224,212,53.4102571,9.9896615,5.048174129
HamburgerStra√üe 9 ¬∑ 27419 Sittensen,53.2843977,9.5106211,27419,274,53.850924,8.715758,81.99576447
Industriestra√üe 2 ¬∑ 27419 Sittensen,53.2808449,9.5067453,27419,274,53.850924,8.715758,82.13805833
Harpstedter Stra√üe 16 ¬∑ 28816 Stuhr/Gro√ü-Mackenstedt,52.9832402,8.6973415,28816,288,53.036745,8.724367,6.218143385
Grevener Stra√üe 5 ¬∑ 49549 Ladbergen,52.1250864,7.7227064,49549,495,52.414292,7.99364,37.06779415
An Der Autobahn 4 ¬∑ 28876 Oyten,53.0533899,9.0318209,28876,288,53.036745,8.724367,20.6361074
Bremer Stra√üe 105 ¬∑ 28816 Stuhr,53.0063839,8.7178351,28816,288,53.036745,8.724367,3.404151789
Amandus-Stubbe-Stra√üe 6 ¬∑ 22113 Hamburg,53.5017573,10.0916398,22113,221,53.542346,10.092252,4.513438967
Linde 19 ¬∑ 42287 Wuppertal,51.2340988,7.2364624,42287,422,51.27233,7.20692,4.722191119
Sieker Landstra√üe 235 ¬∑ 22927 Gro√ühansdorf,53.654579,10.2607717,22927,229,53.669078,10.231072,2.535464204
Stader Stra√üe 30 ¬∑ 27419 Sittensen,53.2897586,9.5072532,27419,274,53.850924,8.715758,81.39359844
Andreas-Meyer-Stra√üe 44 ¬∑ 22113 Hamburg,53.5148729,10.082417,22113,221,53.542346,10.092252,3.123268347
Hansestra√üe 3 ¬∑ 27419 Sittensen,53.292803,9.5038133,27419,274,53.850924,8.715758,80.98705571
Barmer Stra√üe 70 ¬∑ 42899 Remscheid,51.2195168,7.2413072,42899,428,51.157855,7.22812,6.917799782
Hauptstra√üe 54 ¬∑ 28876 Oyten,53.0791242,9.0474256,28876,288,53.036745,8.724367,22.09794209
Mahndorfer Heerstra√üe 86 ¬∑ 28307 Bremen,53.0377162,8.9452492,28307,283,53.04075505,8.93142879,0.983851151
Uphuser Heerstra√üe 60a ¬∑ 28832 Achim,53.0230093,9.0726476,28832,288,53.036745,8.724367,23.34038396
Bergstra√üe 6 ¬∑ 27404 Gyhum,53.2195214,9.3099546,27404,274,53.850924,8.715758,80.44350204
Bankendorfer Weg 1 ¬∑ 23758 Gremersdorf,54.3323076,10.9329236,23758,237,53.50354836,8.474058509,185.5148864
Otto-Brenner-Stra√üe 6 ¬∑ 21109 Hamburg,53.485388,10.0151656,21109,211,53.50427,9.98539,2.878839051
Grosse Stra√üe 2 ¬∑ 49134 Wallenhorst,52.3472801,8.0184876,49134,491,52.226416,8.012492,13.44566075
Professor-Porsche-Stra√üe ¬∑ 49076 Osnabrueck,52.2900634,7.9656292,49076,490,52.2727,8.04506,5.738038462
Hauptstra√üe 37 ¬∑ 23611 Bad Schwartau,53.9310381,10.6872637,23611,236,53.781707,10.642045,16.86761089
Theeltalstra√üe 50 ¬∑ 66636 Tholey-Hasborn,49.487811,6.9859257,66636,666,49.476201,6.6059464,27.48072928
Delmenhorster Stra√üe 12 ¬∑ 27793 Wildeshausen,52.9032475,8.443629,27793,277,53.049157,8.626074,20.30897276
Bergstra√üe 41 ¬∑ 23774 Heiligenhafen,54.3685542,10.972688,23774,237,53.50354836,8.474058509,189.727416
Europaallee 5A ¬∑ 28309 Bremen,53.0348946,8.8874222,28309,283,53.04075505,8.93142879,3.013585971
Bei der Lohm√ºhle 54 ¬∑ 23554 L√ºbeck,,,23554,235,53.865102,10.686306,6069.833438
Tremskamp 32 ¬∑ 23611 Bad Schwartau,53.9048355,10.6906646,23611,236,53.781707,10.642045,14.05790451
Teutopark 2b ¬∑ 49525 Lengerich,52.202276,7.8141519,49525,495,52.414292,7.99364,26.54599187
H√∂rster Heide 2 ¬∑ 49434 Neuenkirchen,52.49153,8.0788661,49434,494,52.7044842,8.493313,36.66400892
Krempelsdorfer Allee 38 ¬∑ 23556 Luebeck,53.8817083,10.6582716,23556,235,53.865102,10.686306,2.60526932
Oberstiftstr 41A ¬∑ 54338 Schweich,49.8267902,6.7541062,54338,543,49.8510952,6.8945281,10.42654683
Krempelsdorfer Allee 78-80 ¬∑ 23556 Luebeck,53.8854332,10.6538289,23556,235,53.865102,10.686306,3.105414397
Sebenter Weg 25 a ¬∑ 23758 Oldenburg,54.2809352,10.8842968,23758,237,53.50354836,8.474058509,180.0318986
Stubbendorfer Ring 31 ¬∑ 23858 Reinfeld,53.8240587,10.5077721,23858,238,53.748511,10.565309,9.211719305
Sundweg 99 ¬∑ 23774 Heiligenhafen,54.365737,11.0023904,23774,237,53.50354836,8.474058509,191.2531724
An Der Autobahn 1 ¬∑ 23858 Reinfeld,53.8229788,10.5044215,23858,238,53.748511,10.565309,9.195954191
Herrenholz 14 ¬∑ 23556 L√ºbeck,53.8580894,10.6266886,23556,235,53.865102,10.686306,3.986467715
Burgtorstra√üe 77 ¬∑ 23758 Oldenburg in Holstein,54.2971888,10.8854066,23758,237,53.50354836,8.474058509,180.9429697
Bei der Lohm√ºhle 19 ¬∑ 23554 L√ºbeck,,,23554,235,53.865102,10.686306,6069.833438
"BAB A1, Altenfelder Weg 17 ¬∑ 21109 Hamburg",53.4848586,10.0254984,21109,211,53.50427,9.98539,3.420258017
An der Autobahn 1 ¬∑ 27404 Gyhum,53.193586,9.288028,27404,274,53.850924,8.715758,82.30185424
Altenberger Stra√üe 34 ¬∑ 48161 M√ºnster,51.9998162,7.558589,48161,481,51.964164,7.63198,6.401503213
Espenhof 1 ¬∑ 49549 Ladbergen,52.1463092,7.7349838,49549,495,52.414292,7.99364,34.60577535
Hamburger Chaussee 1 ¬∑ 23858 Reinfeld,53.8256482,10.4982367,23858,238,53.748511,10.565309,9.642802619
Moordeicher Landstra√üe 84-86 ¬∑ 28816 Stuhr,53.0213404,8.7159778,28816,288,53.036745,8.724367,1.802446286
Harburger Stra√üe 13 ¬∑ 21218 Seevetal,53.3865488,9.9757923,21218,212,53.4102571,9.9896615,2.792006201
Bremer Stra√üe 53 ¬∑ 28816 Stuhr,53.0177933,8.7890789,28816,288,53.036745,8.724367,4.813510779
Dibberser Stra√üe 30 ¬∑ 21244 Buchholz,53.353659,9.8765567,21244,212,53.4102571,9.9896615,9.791973422
Jesteburger Stra√üe 12 ¬∑ 21218 Seevetal,53.3782392,9.9817265,21218,212,53.4102571,9.9896615,3.598895132
Kurf√ºrstenstra√üe 69 ¬∑ 54516 Wittlich,49.986944,6.889722,54516,545,49.975413,6.887132,1.295493701
Schlepelsberg 2 ¬∑ 21629 Neu Wulmstorf,53.3703984,9.8018755,21629,216,53.473153,9.7887425,11.45888258
Eutiner Stra√üe 4a ¬∑ 23611 Bad Schwartau,53.9217942,10.6974416,23611,236,53.781707,10.642045,15.995156
An der Autobahn Nr. 2 ¬∑ 23858 Reinfeld,53.823748,10.5042113,23858,238,53.748511,10.565309,9.278993851
Hannoversche Stra√üe 142 ¬∑ 28309 Bremen,53.0517097,8.8864753,28309,283,53.04075505,8.93142879,3.242508228
Europaallee ¬∑ 28309 Bremen,53.034185,8.8924224,28309,283,53.04075505,8.93142879,2.708384084
Berliner Eck ¬∑ 23758 Oldenburg,54.2861013,10.8790174,23758,237,53.50354836,8.474058509,179.9969389
Krempelsdorfer Allee 63 ¬∑ 23556 L√ºbeck,53.8841754,10.6539782,23556,235,53.865102,10.686306,2.998223014
Dieselstra√üe 1 ¬∑ 23738 Lensahn,54.2162514,10.8825019,23738,237,53.50354836,8.474058509,176.6963143
A1 Neustaedter Bucht Ost ¬∑ 23730 Sierksdorf,54.0682357,10.7563243,23730,237,53.50354836,8.474058509,162.5397063
Neust√§dter-Bucht West 1 ¬∑ 23730 Sierksdorf,54.069532,10.7703557,23730,237,53.50354836,8.474058509,163.4434674
BAB A48 Eifel Ost ¬∑ 54533 Niederoefflingen,50.0694799,6.8814051,54533,545,49.975413,6.887132,10.46776076
"BAB A1, Jakobsberg 9 ¬∑ 21109 Hamburg",53.4837428,10.0270414,21109,211,53.50427,9.98539,3.577903135
Bab A1 ¬∑ 22965 Todendorf,53.6999152,10.3261838,22965,229,53.669078,10.231072,7.140580801
A 1 ¬∑ 27367 Sottrum,53.1047328,9.1947598,27367,273,52.829578,8.989916,33.53049416
A 1 ¬∑ 54421 Reinsfeld,49.6808684,6.9093609,54421,544,49.7375,7.0828,13.97097633
Lichtendorfer Stra√üe 136 ¬∑ 58239 Schwerte,51.4624289,7.5868312,58239,582,51.297259,7.358371432,24.26346213
A 1 ¬∑ 49545 Tecklenburg,52.2117643,7.8515048,49545,495,52.414292,7.99364,24.50529752
A 1 ¬∑ 27801 D√∂tlingen,52.9146289,8.4307875,27801,278,52.93814,8.37856,4.369363677
A 1 ¬∑ 50354 H√ºrth,,,50354,503,50.84549667,6.913742423,5691.392942
Bab A 1 ¬∑ 27367 Sottrum,53.1047328,9.1947598,27367,273,52.829578,8.989916,33.53049416
A 1/Westseit ¬∑ 22965 Todendorf-W,53.6999152,10.3261838,22965,229,53.669078,10.231072,7.140580801
Bab A1 / Wildeshausen Nord ¬∑ 27801 Doetlingen,52.9150754,8.4250003,27801,278,52.93814,8.37856,4.033402224
Bab A1 / Lichtendorf Nord ¬∑ 44289 Dortmund,51.4698193,7.598078,44289,442,51.473892,7.439345,11.00367741
Bab A1 / Hochwald Ost ¬∑ 54421 Reinsfeld / Hunsrueck,52.2512026,7.9133792,54421,544,49.7375,7.0828,285.4860352
A1 Dammer Berge Ost ¬∑ 49451 Holdorf,52.5388966,8.1144338,49451,494,52.7044842,8.493313,31.5140305
A1 Eifel West ¬∑ 54533 Niederoefflingen,50.0692395,6.8793888,54533,545,49.975413,6.887132,10.44768614
A1 Ostetal Nord ¬∑ 27419 Sittensen,53.3004725,9.5341683,27419,274,53.850924,8.715758,81.64461376
"Bab A1, Zur Autobahn 2-4a ¬∑ 27419 Sittensen",53.2985269,9.5323529,27419,274,53.850924,8.715758,81.72862571
Am Rohrbusch 32 ¬∑ 48161 Muenster,51.9460453,7.5480076,48161,481,51.964164,7.63198,6.096881146
A1 / Bremen - M√ºnster ¬∑ 49451 Holdorf,52.5737394,8.110312,49451,494,52.7044842,8.493313,29.65215871
BAT-Remscheid/Ostseite ¬∑ 42859 Remscheid,51.1588305,7.2280205,42859,428,51.157855,7.22812,0.108692376
BAT-M√ºnsterland/Ostseite ¬∑ 48161 M√ºnster,51.9601912,7.5468477,48161,481,51.964164,7.63198,5.84965057
"Bab A1 Ostseite, Dunkbachstra√üe 13 ¬∑ 49545 Tecklenburg",52.2274581,7.8838021,49545,495,52.414292,7.99364,22.07556268
A1 Ville West ¬∑ 50354 Huerth,50.8580126,6.8044219,50354,503,50.84549667,6.913742423,7.799533094
A1 Remscheid West ¬∑ 42859 Remscheid,51.1587037,7.2278244,42859,428,51.157855,7.22812,0.096596467
Moselweinstra√üe 2 ¬∑ 54346 Mehring,49.7970698,6.8236402,54346,543,49.8510952,6.8945281,7.870679244
Justus-Liebig-Stra√üe 9 ¬∑ 36100 Fulda Petersberg,50.5526035,9.7288292,36100,361,50.553971,9.712667,1.151921091
Hauptstra√üe 11 ¬∑ 34253 Lohfelden,51.266966,9.5554487,34253,342,51.255951,9.411806,10.06973549
Breitunger Stra√üe 2 ¬∑ 36100 Petersberg,50.5551916,9.7248754,36100,361,50.553971,9.712667,0.873099451
Kasseler Stra√üe 113 ¬∑ 34266 Niestetal,51.3084737,9.5691946,34266,342,51.255951,9.411806,12.40702505
Im Baumgarten 13 ¬∑ 97795 Schondra,50.2898387,9.8622205,97795,977,50.249126,10.19481,24.06780316
Leipziger Stra√üe 327 ¬∑ 34123 Kassel,51.2956231,9.5453809,34123,341,51.31136457,9.48538,4.523548327
In den Gruenden 6 ¬∑ 36093 Kuenzell,50.5275153,9.7340525,36093,360,50.55190167,9.678708422,4.759187097
Am Langen Acker 17 ¬∑ 36124 Eichenzell,50.4857334,9.7163385,36124,361,50.553971,9.712667,7.592113535
Behringer Stra√üe 63 ¬∑ 29646 Bispingen,53.0995337,9.978244,29646,296,52.73444346,7.756792903,154.3686034
Michelsrombacher Stra√üe 6 ¬∑ 36039 Fulda,50.5891426,9.6930099,36039,360,50.55190167,9.678708422,4.262397031
Forsthausstra√üe 22 ¬∑ 36088 Huenfeld,50.6562745,9.7514392,36088,360,50.55190167,9.678708422,12.69009874
Glockenhofsweg 11 ¬∑ 34277 Fuldabr√ºck - D√∂rnhagen,51.2304564,9.4988676,34277,342,51.255951,9.411806,6.690606064
Kissinger Stra√üe 35 ¬∑ 97769 Bad Brueckenau,50.3169496,9.8026637,97769,977,50.249126,10.19481,28.86575456
Autohof Rhoenhof 5 ¬∑ 36124 Eichenzell,50.4883869,9.7080562,36124,361,50.553971,9.712667,7.299900731
An der Autobahn 18-20 ¬∑ 29690 Buchholz,52.671076,9.6873295,29690,296,52.73444346,7.756792903,130.2635778
Alexander-Von-Humboldt-stra√üe 1 ¬∑ 34253 Lohfelden,51.266966,9.5554487,34253,342,51.255951,9.411806,10.06973549
Am Fieseler Werk 7 ¬∑ 34253 Lohfelden,51.286671,9.5296536,34253,342,51.255951,9.411806,8.88150244
Von-Sauer Stra√üe 27 ¬∑ 22761 Hamburg,53.565737,9.911083,22761,227,53.57483,9.88926,1.760345324
Volksparkstra√üe 44-46 ¬∑ 22525 Hamburg,53.581417,9.913065,22525,225,53.60785,9.90304,3.01275337
Wilhelm-Maybach-Stra√üe 2 ¬∑ 73479 Ellwangen,48.9576111,10.1786947,73479,734,48.834432,10.094287,15.02261192
Schilfwiese 1 ¬∑ 34593 Kn√ºllwald,51.0052353,9.4795913,34593,345,51.12474,9.281101,19.20846498
Pascalstra√üe 11 ¬∑ 25451 Quickborn,53.743195,9.9380695,25451,254,53.658391,9.798222,13.17830772
Im Biegen ¬∑ 36286 Neuenstein,50.9130702,9.576497,36286,362,50.74781,9.85923,27.0551839
Dr.-Reimer-Stra√üe 2 ¬∑ 34323 Malsfeld,51.0877215,9.4855934,34323,343,51.250148,9.250488,24.39052961
Grifter Stra√üe 2 ¬∑ 34302 Guxhagen,51.204602,9.4710478,34302,343,51.250148,9.250488,16.17187082
Hauptstra√üe 32 ¬∑ 34593 Kn√ºllwald,,,34593,345,51.12474,9.281101,5751.767575
M√ºndener Stra√üe 11 ¬∑ 34346 Hedem√ºnden,52.3414706,8.5399326,34346,343,51.250148,9.250488,130.8169171
Leitschaecker 2 ¬∑ 89257 Illertissen,48.2237887,10.1112171,89257,892,48.3881107,10.0358574,19.10298379
Altenwerder Hauptdeich 22 ¬∑ 21129 Hamburg,53.5129923,9.9141088,21129,211,53.50427,9.98539,4.812415001
Bindersche Stra√üe 2 ¬∑ 31188 Holle,52.0901474,10.1728956,31188,311,52.153514,9.952343,16.62457523
In der Waage 1 ¬∑ 73463 Westhausen,48.8845347,10.1751193,73463,734,48.834432,10.094287,8.124396677
Holsteiner Chaussee 182-184 ¬∑ 22457 Hamburg,53.6248378,9.9097346,22457,224,53.646434,10.030759,8.332605513
Luruper Chaussee 18-22 ¬∑ 22761 Hamburg,53.5728941,9.8951988,22761,227,53.57483,9.88926,0.447316598
Kieler Stra√üe 361-365 ¬∑ 22525 Hamburg,53.58874,9.93061,22525,225,53.60785,9.90304,2.797346063
Jossastra√üe 46 ¬∑ 36272 Niederaula,50.8003754,9.6051211,36272,362,50.74781,9.85923,18.79997492
Industriestra√üe 8 ¬∑ 36275 Kirchheim,50.8371188,9.57536,36275,362,50.74781,9.85923,22.28780428
Oberbr√ºhlstra√üe 3 ¬∑ 87700 Memmingen,47.9773581,10.1763495,87700,877,48.395531,10.921211,72.189293
Rudolf-Diesel-Stra√üe 2 ¬∑ 24558 Henstedt-Ulzburg,53.8038863,9.9392566,24558,245,54.179078,10.017154,42.02904405
Behringstra√üe 112 ¬∑ 22763 Hamburg,53.5566366,9.9153055,22763,227,53.57483,9.88926,2.655375847
Holsteiner Chaussee 55 ¬∑ 22523 Hamburg,53.6147148,9.9059876,22523,225,53.60785,9.90304,0.787707636
Kieler Stra√üe 560 ¬∑ 22525 Hamburg,53.5998599,9.9178843,22525,225,53.60785,9.90304,1.322350534
Autohof A7 / As Lutterberg ¬∑ 34355 Staufenberg,51.346236,9.6022261,34355,343,51.250148,9.250488,26.68726777
Memminger Hau 1 ¬∑ 89564 Nattheim,48.6993997,10.2419258,89564,895,48.233968,9.644065,67.98062021
Schnackenburgallee 12 ¬∑ 22525 Hamburg,53.5735685,9.9193521,22525,225,53.60785,9.90304,3.961042149
Bernadottestra√üe 131 ¬∑ 22605 Hamburg,53.5508168,9.886819,22605,226,53.55419,9.87406,0.922542716
Max-Eyth-Stra√üe 1 ¬∑ 73479 Ellwangen,48.9568588,10.1828822,73479,734,48.834432,10.094287,15.07535739
Luebberstedter Stra√üe 36 ¬∑ 21272 Egestorf,53.1930438,10.0859799,21272,212,53.4102571,9.9896615,24.98665396
Theodorstra√üe 1 ¬∑ 22761 Hamburg,53.5678526,9.9118726,22761,227,53.57483,9.88926,1.682652086
Bavenstedter Stra√üe 100 ¬∑ 31135 Hildesheim,52.1654969,9.9746591,31135,311,52.153514,9.952343,2.023045574
Neue Bahnhofstra√üe 5 ¬∑ 37589 Kalefeld,51.791297,10.0382976,37589,375,51.729028,10.252765,16.30392113
Gressthal Weinstra√üe 4 ¬∑ 97535 Wasserlosen-Gressthal,50.0754872,10.042154,97535,975,49.984833,10.668524,45.86286885
Industriestra√üe 7a ¬∑ 36275 Kirchheim,50.8371188,9.57536,36275,362,50.74781,9.85923,22.28780428
Hauptstra√üe 1 ¬∑ 36275 Kirchheim,50.8371188,9.57536,36275,362,50.74781,9.85923,22.28780428
Am Buehlfeld 3 ¬∑ 89537 Giengen,48.6152377,10.2065459,89537,895,48.233968,9.644065,59.32959151
An der Autobahn 1 ¬∑ 29690 Buchholz/Aller,52.6740493,9.6884539,29690,296,52.73444346,7.756792903,130.3173417
Albert-Einstein-Stra√üe ¬∑ 31135 Hildesheim,52.1629095,9.9789993,31135,311,52.153514,9.952343,2.097144265
Gottlieb-Daimler-Stra√üe 2c ¬∑ 29614 Soltau,52.9968519,9.9205003,29614,296,52.73444346,7.756792903,148.1385731
Europastra√üe 3 ¬∑ 87700 Memmingen,47.9993885,10.1528364,87700,877,48.395531,10.921211,71.99748311
Isernhaegener Stra√üe 4 ¬∑ 30938 Burgwedel,52.4883419,9.8298499,30938,309,52.5471184,9.7444593,8.723436233
Wittgenstein 2 ¬∑ 24866 Busdorf,54.4770722,9.5444696,24866,248,54.23223,9.66635,28.34764059
Schleswiger Damm 173 ¬∑ 22457 Hamburg,53.6413415,9.9165568,22457,224,53.646434,10.030759,7.549086937
Grotwisch 2 ¬∑ 24589 D√§tgen,54.1803072,9.94378,24589,245,54.179078,10.017154,4.776863057
An Der Leibi 1 ¬∑ 89278 Nersingen,48.4165848,10.1008051,89278,892,48.3881107,10.0358574,5.745645636
Bremer Stra√üe 300 ¬∑ 21077 Hamburg,53.4386724,9.9361559,21077,210,53.485806,10.213129,19.06998646
Robert-Koch-Stra√üe 2 ¬∑ 29683 Bad Fallingbostel,52.8667555,9.6957633,29683,296,52.73444346,7.756792903,131.1755371
Ohlendorfer Stra√üe 42 ¬∑ 21220 Seevetal,53.340921,10.0570827,21220,212,53.4102571,9.9896615,8.913119692
Industriestra√üe 1 ¬∑ 97258 Ippesheim,49.5854397,10.1784222,97258,972,49.89641,9.81834,43.18768813
An der Alten Ziegelei 4 ¬∑ 89269 V√∂hringen-Illerberg,48.2853986,10.1164719,89269,892,48.3881107,10.0358574,12.88206952
Scandinavian Park 1 ¬∑ 24983 Handewitt,54.7774981,9.3340139,24983,249,54.765799,9.47798,9.32535318
Unterer Kellermann 1 ¬∑ 97273 Kuernach,49.8464444,10.0402685,97273,972,49.89641,9.81834,16.84714076
Abfahrt A 7 ¬∑ 97215 Uffenheim,49.5334348,10.1836358,97215,972,49.89641,9.81834,48.15381685
Stader Stra√üe 294-296 ¬∑ 21075 Hamburg,53.4710402,9.9395397,21075,210,53.485806,10.213129,18.17903909
Bodenseestra√üe 40 ¬∑ 87700 Memmingen,47.9780177,10.1644064,87700,877,48.395531,10.921211,72.82171327
Bastenauer Stra√üe 12 ¬∑ 91637 W√∂rnitz,49.257361,10.2365737,91637,916,49.25312,10.29946,4.588325835
In Der Meineworth 12 ¬∑ 30938 Burgwedel,52.4911253,9.847529,30938,309,52.5471184,9.7444593,9.348787464
"BAB A7, Motelstra√üe 5 ¬∑ 36273 Kirchheim",50.8290323,9.5765064,36273,362,50.74781,9.85923,21.83014158
Buxheimer Stra√üe 113 ¬∑ 87700 Memmingen,47.9915313,10.1619394,87700,877,48.395531,10.921211,72.01015096
Am Wiesenweg ¬∑ 97262 Hausen B.Wuerzburg,49.9123862,10.0025677,97262,972,49.89641,9.81834,13.31284474
Am Hanfberg 3 ¬∑ 29649 Wietzendorf,52.9452102,9.8812909,29649,296,52.73444346,7.756792903,144.601817
Baukreativstra√üe 7 ¬∑ 91628 Steinsfeld-Endsee,49.4454074,10.245932,91628,916,49.25312,10.29946,21.73011711
Westerlange 2 ¬∑ 37154 Northeim,51.7311382,9.9727384,37154,371,51.5122608,10.2424837,30.64501327
Hauptstra√üe 1 ¬∑ 37589 Echte,51.7858567,10.0590699,37589,375,51.729028,10.252765,14.75354548
Allg√§uer Stra√üe 34 ¬∑ 87700 Memmingen,47.9722335,10.182537,87700,877,48.395531,10.921211,72.21123313
Am Zainer Berg 2 ¬∑ 38723 Seesen,51.9473995,10.1397682,38723,387,51.731811,10.612628,40.37417853
Bodenseestra√üe 33 ¬∑ 87700 Memmingen,47.9780177,10.1644064,87700,877,48.395531,10.921211,72.82171327
Kennedydamm 200Ost ¬∑ 31135 Hildesheim,52.1698356,9.9634696,31135,311,52.153514,9.952343,1.967180633
"BAB A7, Allertal Ost 1 ¬∑ 29690 Essel",52.6956528,9.6884147,29690,296,52.73444346,7.756792903,130.1808369
Wei√üenbachstra√üe 2 ¬∑ 87730 Bad Gr√∂nenbach,,,87730,877,48.395531,10.921211,5483.082314
Am Kaufpark 7 ¬∑ 37079 Goettingen,51.5263419,9.8804854,37079,370,51.528467,9.937287,3.936567242
Obere Dorfstra√üe 1 ¬∑ 37176 Noerten-Hardenberg,51.6317796,9.9092975,37176,371,51.5122608,10.2424837,26.58673366
Unter Dem Pferdestiege 1 ¬∑ 37176 Noerten-Hardenberg,51.6293489,9.921599,37176,371,51.5122608,10.2424837,25.71651895
Hauptstra√üe 2 ¬∑ 87466 Oy-Mittelberg,47.6443362,10.4545655,87466,874,47.720549,10.315315,13.43446229
Raiffeisenstra√üe 3 ¬∑ 87463 Dietmannsried,47.8087708,10.2893454,87463,874,47.720549,10.315315,10.0000064
Daimlerstra√üe 11 ¬∑ 87437 Kempten,47.7593055,10.3243683,87437,874,47.720549,10.315315,4.362376772
Heisinger Stra√üe 25 ¬∑ 87463 Dietmannsried,47.8055728,10.2974291,87463,874,47.720549,10.315315,9.548268776
Apothekerholz 3 ¬∑ 24623 Brokenlande,54.0135928,9.9333144,24623,246,54.082197,9.784952,12.32899799
A7 Huettener Berge Ost ¬∑ 24791 Alt Duvenstedt,54.3659123,9.67172,24791,247,54.297609,9.668331,7.598158316
A7 Aalbek West ¬∑ 24537 Neumuenster,54.0895324,9.9295668,24537,245,54.179078,10.017154,11.47613815
Bab A7 ¬∑ 97795 Schondra,50.2662206,9.8814508,97795,977,50.249126,10.19481,22.3579272
"BAB A7, Bergh√§user Stra√üe ¬∑ 34523 Lohfelden",51.2761574,9.5463023,34523,345,51.12474,9.281101,24.99811371
A7 ¬∑ 97795 Schondra,50.2662206,9.8814508,97795,977,50.249126,10.19481,22.3579272
A7 Hasselberg Ost ¬∑ 34593 Knuellwald,51.0355037,9.48931,34593,345,51.12474,9.281101,17.60701092
An der A7 (Illertal-West) ¬∑ 88451 Dettingen an der Iller,48.1260429,10.109061,88451,884,48.100803,9.770889,25.2623185
Bab A7 / Ellwanger Berge West ¬∑ 73479 Ellwangen / Jagst,48.9653197,10.1852412,73479,734,48.834432,10.094287,16.00070193
Lonetal West A7 ¬∑ 89537 Giengen,48.5849819,10.1767045,89537,895,48.233968,9.644065,55.39899514
Bab A7 / Allgaeuer Tor Ost ¬∑ 87463 Dietmannsried,47.8466965,10.2830121,87463,874,47.720549,10.315315,14.23308683
Bab A7 / Allgaeuer Tor West ¬∑ 87463 Dietmannsried,47.8489812,10.2810149,87463,874,47.720549,10.315315,14.50912109
A 7-Ost ¬∑ 36151 Burghaun,50.7138925,9.6594408,36151,361,50.553971,9.712667,18.17437278
A 7 ¬∑ 38723 Seesen,51.875782,10.12744,38723,387,51.731811,10.612628,37.00277139
A 7 ¬∑ 38723 Seesen,51.875782,10.12744,38723,387,51.731811,10.612628,37.00277139
A 7 ¬∑ 24791 Alt Duvenstedt,54.369902,9.665728,24791,247,54.297609,9.668331,8.040386121
A 7 ¬∑ 36148 Kalbach,50.4123247,9.732872,36148,361,50.553971,9.712667,15.81509482
A 7 ¬∑ 91620 Ohrenbach,49.467682,10.2328856,91620,916,49.25312,10.29946,24.34049459
A 7 ¬∑ 21077 Hamburg,53.4300717,9.9445561,21077,210,53.485806,10.213129,18.83040345
A 7 ¬∑ 34593 Kn√ºllwald,51.0079127,9.4869539,34593,345,51.12474,9.281101,19.38212102
A 7/E45 ¬∑ 31174 Schellerten,52.5619019,9.788663,31174,311,52.153514,9.952343,46.75125459
A 7 ¬∑ 37124 Rosdorf,51.4638484,9.8700604,37124,371,51.5122608,10.2424837,26.34195948
A 7 ¬∑ 88451 Dettingen an der Iller,48.1092863,10.1239261,88451,884,48.100803,9.770889,26.23076201
A 7 ¬∑ 97262 Hausen bei W√ºrzburg,49.9277895,9.9985074,97262,972,49.89641,9.81834,13.36446964
BAB A7 Ohrenbach West ¬∑ 91620 Ohrenbach,49.4849395,10.2106524,91620,916,49.25312,10.29946,26.56711428
Bab A7 ¬∑ 37124 Rosdorf,51.4638484,9.8700604,37124,371,51.5122608,10.2424837,26.34195948
Bab A7 / Riedener Wald Ost ¬∑ 97262 Hausen,49.9437638,10.0210011,97262,972,49.89641,9.81834,15.43510475
A7 Hildesheimer Boerde Ost ¬∑ 31174 Schellerten,52.1277213,10.0513566,31174,311,52.153514,9.952343,7.340476789
A7 Uttrichshausen Ost ¬∑ 36148 Kalbach,50.4112609,9.7327224,36148,361,50.553971,9.712667,15.9319585
A7 Grossenmoor West ¬∑ 36151 Burghaun,50.7117095,9.6616759,36151,361,50.553971,9.712667,17.90462819
A7 Lonetal Ost ¬∑ 89537 Giengen,48.5832039,10.1778979,89537,895,48.233968,9.644065,55.32307749
Ellwanger Berge Ostseite ¬∑ 73479 Ellwangen,48.9837888,10.1961945,73479,734,48.834432,10.094287,18.20124115
Holmmoor Ostseite ¬∑ 25451 Quickborn,53.7124428,9.9327416,25451,254,53.658391,9.798222,10.70484311
BAB A7 Holmmoorweg West ¬∑ 25451 Quickborn,53.7302729,9.8995154,25451,254,53.658391,9.798222,10.40966072
BAB A7 Harburger Berge West ¬∑ 21077 Hamburg,53.4241028,9.9632021,21077,210,53.485806,10.213129,17.91400877
Bab A7 ¬∑ 30539 Hannover,52.3302899,9.8635649,30539,305,52.34313,9.75556,7.475709594
A7 Hannover-Wuelferode West ¬∑ 30539 Hannover,52.337632,9.8634507,30539,305,52.34313,9.75556,7.355186522
A 7 ¬∑ 29690 Essel,52.704013,9.6852149,29690,296,52.73444346,7.756792903,129.9254698
A 7 ¬∑ 29646 Bispingen,53.1210725,9.9880422,29646,296,52.73444346,7.756792903,155.6109246
A7 Brunautal West ¬∑ 29646 Bispingen,53.1082434,9.9805167,29646,296,52.73444346,7.756792903,154.7583581
Am Eichengarten 2 ¬∑ 06842 Dessau-Rosslau,51.819735,12.3027326,06842,068,51.88048,12.65407,25.05988972
Obere Donitzschkau 2 ¬∑ 07607 Eisenberg,50.9801522,11.8987963,07607,076,50.969732,11.897986,1.160061478
Rodaer Stra√üe 72 ¬∑ 07629 Hermsdorf,50.8867768,11.8514986,7629,762,48.938505,8.367736,330.3274885
Oranienbaumer Chaussee 40 ¬∑ 06842 Dessau,51.8244526,12.3004543,06842,068,51.88048,12.65407,25.07393914
Sandbreite 1 ¬∑ 06869 Coswig,51.8893635,12.4031307,6869,686,49.594523,8.466921,376.5028859
Sonnenfeld 2 ¬∑ 06766 Bitterfeld,51.6694163,12.235267,6766,676,49.4431806,7.774825,400.5901011
Jenaer Stra√üe 52 ¬∑ 07607 Eisenberg,50.970807,11.8821907,07607,076,50.969732,11.897986,1.1124602
An der B 10032 ¬∑ 06796 Brehna,51.5559949,12.2087874,06796,067,51.6363,12.1991,8.954556632
Jenaer Stra√üe 71 ¬∑ 07607 Eisenberg,50.970807,11.8821907,07607,076,50.969732,11.897986,1.1124602
Leuschnitzstra√üe 1 ¬∑ 95463 Bindlach,49.9775435,11.6080197,95463,954,49.945563,11.576707,4.20268751
Bernecker Stra√üe 52 ¬∑ 95448 Bayreuth,49.9546039,11.6001046,95448,954,49.945563,11.576707,1.952729282
Weiherstra√üe 2 ¬∑ 95448 Bayreuth,49.9363569,11.61009,95448,954,49.945563,11.576707,2.599053411
August-Horch-Stra√üe 14 ¬∑ 95213 Muenchberg,50.1962235,11.768228,95213,952,50.202703,11.777117,0.958858871
An der Autobahn ¬∑ 07639 Bad Klosterlausnitz,50.9088778,11.8431713,7639,763,48.799968,8.440567,338.3041502
Westfalenstra√üe 1 / Bab9 ¬∑ 14822 Linthe,52.1311683,12.7520129,14822,148,52.141766,12.583619,11.55305928
Schlei√üheimer Stra√üe 28 ¬∑ 85748 Garching b. M√ºnchen,48.2398824,11.630583,85748,857,48.228192,11.482517,11.04339385
Riedingerstra√üe 21 ¬∑ 95448 Bayreuth,49.9605673,11.5971023,95448,954,49.945563,11.576707,2.216471367
Heisenbergstra√üe 3 ¬∑ 85386 Eching,48.3035189,11.6329834,85386,853,48.471233,11.564945,19.31388265
N√ºrnberger Stra√üe 95 ¬∑ 95448 Bayreuth,49.9363569,11.61009,95448,954,49.945563,11.576707,2.599053411
Christian-Ritter-Von-Langheinrich-Stra√üe 2 ¬∑ 95448 Bayreuth,49.9617712,11.6110938,95448,954,49.945563,11.576707,3.049678165
Bernecker Stra√üe 49 ¬∑ 95448 Bayreuth,49.9546039,11.6001046,95448,954,49.945563,11.576707,1.952729282
"BAB 9 Ausfahrt Droy√üig/21B, Im Heidegrund Sued ¬∑ 06721 Osterfeld",51.0402199,11.9384451,6721,672,49.537156,8.180606,314.915469
Hersbrucker Stra√üe 64 ¬∑ 91207 Lauf,49.5162853,11.2925933,91207,912,49.690991,11.630317,31.13964275
Schwabacher Stra√üe 27 ¬∑ 90537 Feucht,49.3684734,11.2071172,90537,905,49.403379,10.691245,37.54175205
Altdorfer Stra√üe 93 ¬∑ 91207 Lauf,49.5044451,11.2847536,91207,912,49.690991,11.630317,32.41189103
A9 Flaeming Ost ¬∑ 14823 Muehlenfliess,52.1327392,12.7535249,14823,148,52.141766,12.583619,11.63915274
An der Autobahn 1 ¬∑ 06231 Bad Duerrenberg,51.2902854,12.1381405,06231,062,51.359565,11.981529,13.333011
Bierweg 6 ¬∑ 04435 Schkeuditz,51.4028756,12.1943555,4435,443,51.535409,7.542785,322.4841882
An der BAB 9 ¬∑ 04435 Schkeuditz,51.3998693,12.1822891,4435,443,51.535409,7.542785,321.6757242
Stegenwaldhauser Stra√üe 1 ¬∑ 95152 Selbitz,50.3238436,11.7889551,95152,951,50.238489,12.02963,19.5585041
Sindersdorf 25 ¬∑ 91161 Hilpoltstein,49.1635108,11.2702704,91161,911,49.337413,11.014337,26.81420684
Riedingerstra√üe 11 ¬∑ 95448 Bayreuth,49.9605673,11.5971023,95448,954,49.945563,11.576707,2.216471367
M√ºnchener Stra√üe 49 ¬∑ 85748 Garching,48.2398824,11.630583,85748,857,48.228192,11.482517,11.04339385
Untere Hauptstra√üe 11 ¬∑ 85386 Eching,48.301,11.6325999,85386,853,48.471233,11.564945,19.57725006
Industriestra√üe 29 ¬∑ 07907 Schleiz,50.5973314,11.8399258,7907,790,47.9978277,7.8488269,408.9208756
Bischof-Heinrich-Stra√üe 23 ¬∑ 91257 Pegnitz-Trockau,49.8248436,11.4958413,91257,912,49.690991,11.630317,17.74371219
Bayreuther Stra√üe 1-3 ¬∑ 95502 Himmelkron,50.0548964,11.6089074,95502,955,49.89298,11.6461,18.1996851
Carl-Benz-Stra√üe 5 ¬∑ 85053 Ingolstadt,48.7420413,11.468749,85053,850,48.74010978,11.43508564,2.477823896
Am Keltenwall l2 ¬∑ 85077 Manching,48.7117782,11.4955738,85077,850,48.74010978,11.43508564,5.441539586
Hofer Stra√üe 2/B303 ¬∑ 95502 Himmelkron,50.0544926,11.6237512,95502,955,49.89298,11.6461,18.03035704
A9 Hermsdorfer Kreuz Ost ¬∑ 07629 Schleifreisen,50.8743705,11.8488304,7629,762,48.938505,8.367736,329.3047605
A9 Osterfeld West ¬∑ 06721 Osterfeld,51.105179,11.9541072,6721,672,49.537156,8.180606,319.582935
Hauptstra√üe 8 ¬∑ 85095 Denkendorf,48.9263573,11.4546675,85095,850,48.74010978,11.43508564,20.75931721
"BAT A9, K√∂ckern Ost ¬∑ 06794 K√∂ckern",41.6500394,-73.3354993,06794,067,51.6363,12.1991,6242.258438
BAT A9 K√∂ckern West ¬∑ 06794 K√∂ckern,41.6500394,-73.3354993,06794,067,51.6363,12.1991,6242.258438
Hallesche Stra√üe 41/Schwa ¬∑ 06686 L√ºtzen / OT Zorbau,51.1842597,12.0118862,6686,668,49.4122,7.5489,373.1584618
Neust√§dter Stra√üe 50 ¬∑ 07819 Triptis,50.7364039,11.8562636,7819,781,48.214153,8.230824,383.6714711
Hauptstra√üe 3 ¬∑ 85095 Denkendorf,48.9263573,11.4546675,85095,850,48.74010978,11.43508564,20.75931721
Autohof An Der Autobahn K4 ¬∑ 91161 Hilpoltstein,49.1598668,11.2581615,91161,911,49.337413,11.014337,26.51374297
Enkeringer Stra√üe 7 ¬∑ 85125 Kinding,48.9994314,11.3783677,85125,851,48.8076,11.47,22.35743473
Ottenhof 51 ¬∑ 91287 Plech,49.6665115,11.4657839,91287,912,49.690991,11.630317,12.14725378
A9 Flaeming West ¬∑ 14823 Muehlenfliess,52.1329672,12.7512356,14823,148,52.141766,12.583619,11.48128454
Am Braunweiher 2 ¬∑ 85077 Manching,48.7090464,11.4951074,85077,850,48.74010978,11.43508564,5.595995961
Situlistra√üe 36 ¬∑ 80939 M√ºnchen,,,80939,809,48.213242,11.556008,5475.569206
Schwarzleite 2 ¬∑ 91220 Schnaittach,49.5671093,11.3275804,91220,912,49.690991,11.630317,25.79120553
Bahnhofstra√üe 20 ¬∑ 91171 Greding,49.0627236,11.3264827,91171,911,49.337413,11.014337,38.04335244
Zur Achm√ºhle 1 ¬∑ 91171 Greding,49.0627236,11.3264827,91171,911,49.337413,11.014337,38.04335244
Frankfurter Ring 241 ¬∑ 80807 Muenchen,48.1867397,11.6063971,80807,808,48.166647,11.578844,3.027480762
Schenkendorfstra√üe 15 ¬∑ 80807 M√ºnchen,48.1769558,11.5895474,80807,808,48.166647,11.578844,1.394260597
Manchinger Stra√üe 115 ¬∑ 85053 Ingolstadt,48.7474464,11.4653886,85053,850,48.74010978,11.43508564,2.366990874
Ungererstra√üe 65 ¬∑ 80805 Muenchen,48.176022,11.6000011,80805,808,48.166647,11.578844,1.88368474
Freisinger Landstra√üe 26 ¬∑ 80939 M√ºnchen,48.2070336,11.6253727,80939,809,48.213242,11.556008,5.186101609
Freisinger Landstra√üe 9 ¬∑ 80939 M√ºnchen,48.2070336,11.6253727,80939,809,48.213242,11.556008,5.186101609
A9 Hermsdorfer Kreuz West ¬∑ 07629 Schleifreisen,50.8754815,11.8455747,7629,762,48.938505,8.367736,329.207029
A9 Osterfeld Ost ¬∑ 06721 Osterfeld,51.1054561,11.958265,6721,672,49.537156,8.180606,319.8463698
Obere Hauptstra√üe 5 ¬∑ 85084 Reichertshofen/Wind.,48.6461409,11.5132881,85084,850,48.74010978,11.43508564,11.92165939
Goethestra√üe 145 ¬∑ 85055 Ingolstadt,48.7720383,11.4468594,85055,850,48.74010978,11.43508564,3.653696238
Ingolst√§dter Stra√üe 7 a ¬∑ 85101 Lenting,48.8017648,11.4569552,85101,851,48.8076,11.47,1.154856361
Roemerstra√üe 50 ¬∑ 85055 Ingolstadt,48.7913836,11.4379428,85055,850,48.74010978,11.43508564,5.705233179
Kapellenweg 1 ¬∑ 85120 Hepberg,48.817571,11.4604283,85120,851,48.8076,11.47,1.311681286
Manchinger Stra√üe 84 ¬∑ 85053 Ingolstadt,48.7474464,11.4653886,85053,850,48.74010978,11.43508564,2.366990874
Logistikring 8 ¬∑ 85084 Reichertshofen,48.6432812,11.5189827,85084,850,48.74010978,11.43508564,12.4035247
Oberthann Nr. 9 ¬∑ 85301 Schweitenkirchen,48.5076186,11.5847958,85301,853,48.471233,11.564945,4.302251706
Manchinger Stra√üe 70 ¬∑ 85053 Ingolstadt,48.7474464,11.4653886,85053,850,48.74010978,11.43508564,2.366990874
Schollstra√üe 2 ¬∑ 85055 Ingolstadt,48.7913836,11.4379428,85055,850,48.74010978,11.43508564,5.705233179
Manchinger Stra√üe 76 ¬∑ 85053 Ingolstadt,48.7474464,11.4653886,85053,850,48.74010978,11.43508564,2.366990874
Robert-Koch-Stra√üe 1 ¬∑ 85301 Schweitenkirchen,48.5103435,11.5819393,85301,853,48.471233,11.564945,4.525622692
M√ºnchner Stra√üe 17 ¬∑ 85391 Allershausen,48.4311846,11.5970726,85391,853,48.471233,11.564945,5.044307797
Schro√ülacher Stra√üe 2 ¬∑ 85391 Allershausen,48.4311846,11.5970726,85391,853,48.471233,11.564945,5.044307797
Muenchener Stra√üe 16 ¬∑ 85391 Allershausen,48.4302139,11.5935018,85391,853,48.471233,11.564945,5.023890193
An Der A 9 ¬∑ 07927 Hirschberg,50.4180055,11.7859878,7927,792,48.03381,7.579161,404.3750858
Sieggrubenstr 5 ¬∑ 95180 Berg Bei Hof,50.3714485,11.7893049,95180,951,50.238489,12.02963,22.58082443
A9 Frankenwald Ost ¬∑ 95180 Berg,50.406671,11.7740822,95180,951,50.238489,12.02963,26.05514683
A 9 ¬∑ 85120 Hepberg,48.8284594,11.4727979,85120,851,48.8076,11.47,2.328488089
A 9 ¬∑ 85301 Geisenhausen,48.5516523,11.5912618,85301,853,48.471233,11.564945,9.149938233
A 9 ¬∑ 95180 Berg,50.3820817,11.783337,95180,951,50.238489,12.02963,23.68188883
A9 Greding Ost ¬∑ 91171 Greding,49.041114,11.3543977,91171,911,49.337413,11.014337,41.1853647
"Bab A9, Ostseite ¬∑ 90537 Feucht",49.3724892,11.2009409,90537,905,49.403379,10.691245,37.05155808
Feucht-West A 9 ¬∑ 90537 Feucht,49.3748517,11.2291112,90537,905,49.403379,10.691245,39.05906134
A 9 ¬∑ 85120 Hepberg,48.8284594,11.4727979,85120,851,48.8076,11.47,2.328488089
A9 Greding West ¬∑ 91171 Greding,49.0448341,11.3387469,91171,911,49.337413,11.014337,40.17690674
Ausfahrt F√ºrholzen A 9 ¬∑ 85376 F√ºrholzen,48.3436994,11.6054063,85376,853,48.471233,11.564945,14.49217761
A9 Fuerholzen West ¬∑ 85376 Neufahrn B.Freising,48.3380681,11.6077133,85376,853,48.471233,11.564945,15.14008544
A 9 ¬∑ 91257 Pegnitz,49.7669319,11.505586,91257,912,49.690991,11.630317,12.31589561
BAB A9 Pegnitz West ¬∑ 91257 Pegnitz,49.7669319,11.505586,91257,912,49.690991,11.630317,12.31589561
Karlsruher Stra√üe 46 ¬∑ 75179 Pforzheim,48.9023477,8.6596503,75179,751,48.947228,8.574427,7.979567396
Friolzheimerstra√üe 37 ¬∑ 71299 Wimsheim,48.8497728,8.8259684,71299,712,48.798767,8.999774,13.93067245
Karlsruher Stra√üe 85 ¬∑ 75179 Pforzheim,48.9023477,8.6596503,75179,751,48.947228,8.574427,7.979567396
Kirkeler Stra√üe 50 ¬∑ 66538 Neunkirchen,49.3286629,7.1859547,66538,665,49.187444,7.370269,20.62754864
Vorstadtstra√üe 133 ¬∑ 66793 Saarwellingen,49.3473333,6.7997595,66793,667,49.392698,6.700288,8.79318923
Homburger Stra√üe 106-108 ¬∑ 66482 Zweibruecken,49.2557086,7.3414439,66482,664,49.229229,7.410162,5.7926904
A.D.Windschnorr 47 ¬∑ 66459 Kirkel,49.3081969,7.2748684,66459,664,49.229229,7.410162,13.17057298
Meisenweg 8 ¬∑ 70771 Leinfelden,48.705588,9.1439272,70771,707,48.702103,9.140427,0.464911114
Neunmorgenstra√üe 8-12 ¬∑ 66424 Homburg,49.2635888,7.3327517,66424,664,49.229229,7.410162,6.794984295
Gottlieb-Daimler-Stra√üe 36-38 ¬∑ 66482 Zweibr√ºcken,49.2487696,7.3509448,66482,664,49.229229,7.410162,4.817037213
Schelmenwasenstra√üe 7 ¬∑ 70567 Stuttgart,48.7113769,9.1672833,70567,705,48.7299,9.12325,3.831008859
Kirchheimer Stra√üe 176/2 ¬∑ 73265 Dettingen unter Teck,48.6223216,9.4537654,73265,732,48.706856,9.421793,9.688631925
Fernstra√üe 200 ¬∑ 66538 Neunkirchen,49.3319518,7.1911597,66538,665,49.187444,7.370269,20.6673917
Ludwigsthaler Stra√üe 23 ¬∑ 66539 Neunkirchen,49.3247565,7.2198674,66539,665,49.187444,7.370269,18.76885485
Im Buchbusch 12 ¬∑ 75177 Pforzheim,48.9204924,8.7205586,75177,751,48.947228,8.574427,11.08075351
Karlsruher Stra√üe 26A ¬∑ 75179 Pforzheim,48.9023477,8.6596503,75179,751,48.947228,8.574427,7.979567396
Kirchheimer Stra√üe 151 ¬∑ 73265 Dettingen u. Teck,48.6223216,9.4537654,73265,732,48.706856,9.421793,9.688631925
Hauptstra√üe 159 ¬∑ 70771 Leinfelden-Echterdin,48.6885983,9.1410265,70771,707,48.702103,9.140427,1.502298628
Dinglerstr 5 ¬∑ 66482 Zweibruecken,49.2517056,7.3591862,66482,664,49.229229,7.410162,4.465618389
Leonberger Stra√üe 56 ¬∑ 71277 Rutesheim,48.8072028,8.9507274,71277,712,48.798767,8.999774,3.712557002
Lindenstra√üe 7 ¬∑ 66583 Spiesen-Elversberg,49.3123343,7.1463137,66583,665,49.187444,7.370269,21.37976586
Lindenstra√üe 14 ¬∑ 66583 Spiesen-Elversberg,49.3123343,7.1463137,66583,665,49.187444,7.370269,21.37976586
Vorstadtstra√üe 54 ¬∑ 66793 Saarwellingen,49.3473333,6.7997595,66793,667,49.392698,6.700288,8.79318923
Lebacher Stra√üe 13 ¬∑ 66265 Heusweiler,49.3479627,6.9325187,66265,662,49.346209,6.934792,0.255235839
Homburger Stra√üe 65 ¬∑ 66424 Homburg,49.2812483,7.316015,66424,664,49.229229,7.410162,8.952377413
R√∂merstra√üe 1 ¬∑ 71296 Heimsheim,48.8080814,8.8636227,71296,712,48.798767,8.999774,10.02508196
Dettinger Stra√üe 87 ¬∑ 73230 Kirchheim,48.6387113,9.4538698,73230,732,48.706856,9.421793,7.934975363
Berliner Stra√üe 52/1 ¬∑ 71229 Leonberg,48.7897648,9.0170509,71229,712,48.798767,8.999774,1.613576554
Sch√∂nbuchstra√üe 2 ¬∑ 73765 Neuhausen,48.6829871,9.2737662,73765,737,48.73334,9.31523,6.372234827
Sch√∂llkopfstra√üe 121 ¬∑ 73230 Kirchheim,48.6425125,9.4594184,73230,732,48.706856,9.421793,7.669528725
Merziger Str 1 ¬∑ 66663 Merzig,49.4419933,6.6233123,66663,666,49.476201,6.6059464,4.005454108
Loch√§ckerstra√üe / B 294 ¬∑ 75177 Pforzheim,48.9174097,8.7173007,75177,751,48.947228,8.574427,10.95086219
Wallerfanger Stra√üe 69 ¬∑ 66780 Rehlingen-Siersburg,49.3753272,6.6808061,66780,667,49.392698,6.700288,2.391567656
Hauptstra√üe 1 ¬∑ 66798 Wallerfangen,49.3271048,6.6434337,66798,667,49.392698,6.700288,8.375607565
Elly-Beinhornstra√üe 2 ¬∑ 73760 Ostfildern - Scharnhausen,48.705112,9.2504021,73760,737,48.73334,9.31523,5.698246637
Margarete-Steiff-Stra√üe 2 ¬∑ 71277 Rutesheim,48.8101802,8.9265796,71277,712,48.798767,8.999774,5.508673274
Plieninger Stra√üe 51 ¬∑ 70794 Filderstadt,48.6829331,9.2188732,70794,707,48.702103,9.140427,6.139826202
Neuhauser Stra√üe 54 ¬∑ 70599 Stuttgart,48.6979825,9.2209388,70599,705,48.7299,9.12325,7.997860173
Neuhauser Stra√üe 50 B ¬∑ 70599 Stuttgart,48.6982232,9.226755,70599,705,48.7299,9.12325,8.371096178
Bertha-Benz-Str 4 ¬∑ 89188 Merklingen,48.5172055,9.7598196,89188,891,48.456817,10.029649,20.9892119
Glemseckstra√üe 63 ¬∑ 71229 Leonberg,48.7846568,9.0194306,71229,712,48.798767,8.999774,2.129588572
Bruckenbachstra√üe 46 ¬∑ 71229 Leonberg,48.8011637,8.997988,71229,712,48.798767,8.999774,0.296874532
Hauptstra√üe 243 ¬∑ 66589 Merchweiler,49.3497764,7.0480376,66589,665,49.187444,7.370269,29.5370696
Glash√ºttenstra√üe 4 ¬∑ 66287 Quierschied,49.322948,7.0548317,66287,662,49.346209,6.934792,9.074400235
Plieninger Stra√üe 35 ¬∑ 73765 Neuhausen,48.6910032,9.2721182,73765,737,48.73334,9.31523,5.671633502
Trierer Stra√üe 44-46 ¬∑ 66265 Heusweiler,49.3412101,6.9339405,66265,662,49.346209,6.934792,0.559264832
Nellinger Stra√üe 24 ¬∑ 89188 Merklingen,48.5134195,9.7585611,89188,891,48.456817,10.029649,20.94750121
Bitscher Stra√üe 20a ¬∑ 66482 Zweibr√ºcken,49.2328751,7.3605058,66482,664,49.229229,7.410162,3.628329749
Saarbruecker Stra√üe 1 ¬∑ 66299 Friedrichsthal,49.3218415,7.0952134,66299,662,49.346209,6.934792,11.93574099
Leonberger Stra√üe 38 ¬∑ 71229 Leonberg,48.791697,9.0106738,71229,712,48.798767,8.999774,1.12048473
Flughafenstra√üe 70 ¬∑ 70629 Stuttgart,48.6895469,9.2129825,70629,706,48.689869,9.191937,1.545235675
Kruichling 15 ¬∑ 73230 Kirchheim / Teck,48.644007,9.4293331,73230,732,48.706856,9.421793,7.010384929
Leonberger Stra√üe 48 ¬∑ 71292 Friolzheim,48.8372589,8.8453554,71292,712,48.798767,8.999774,12.08904617
Deizisauer Stra√üe 24 ¬∑ 73770 Denkendorf,48.6962247,9.3326469,73770,737,48.73334,9.31523,4.320330157
Renninger Stra√üe 24 ¬∑ 71277 Rutesheim,48.8040368,8.940708,71277,712,48.798767,8.999774,4.365551246
Wiesenstra√üe 30 ¬∑ 76228 Karlsruhe,48.9574166,8.4778417,76228,762,48.938505,8.367736,8.31108186
Lerchenbergstra√üe 7 ¬∑ 89160 Dornstadt,48.4634654,9.9481647,89160,891,48.456817,10.029649,6.053789303
Heinrich-Otto-Stra√üe 2 ¬∑ 73240 Wendlingen Am Neckar,48.6657328,9.3674335,73240,732,48.706856,9.421793,6.069046441
Bab-Ausfahrt ¬∑ 89081 Ulm,48.4365897,9.9810019,89081,890,48.396859,9.995607,4.547441347
Bahnhofstra√üe 10 ¬∑ 73240 Wendlingen,48.6738909,9.3742802,73240,732,48.706856,9.421793,5.059590352
Ulmer Stra√üe 13 ¬∑ 89340 Leipheim,48.4458887,10.2124113,89340,893,48.376357,10.846746,47.45360034
Im Hag 2-4 ¬∑ 73230 Kirchheim/teck,48.6420989,9.4333135,73230,732,48.706856,9.421793,7.250177447
Hauptstra√üe 2a ¬∑ 89312 Guenzburg,48.4707826,10.278213,89312,893,48.376357,10.846746,43.2464506
Hauptstra√üe 1 ¬∑ 85254 Sulzemoos,48.2901844,11.2644928,85254,852,48.253313,11.439904,13.61438854
Ziegeleistra√üe 2 ¬∑ 86368 Gersthofen,48.4109512,10.8731446,86368,863,48.356362,10.963932,9.044137676
Autohof Wilhelm-Maybach-Stra√üe 3 ¬∑ 89312 Guenzburg,48.4269519,10.2891176,89312,893,48.376357,10.846746,41.54825973
Hauptstra√üe 263 ¬∑ 89343 Jettingen-Scheppach,48.3939093,10.4578772,89343,893,48.376357,10.846746,28.7829331
Theodor-Sanne-Stra√üe 1 ¬∑ 83233 Bernau A.Chiemsee,47.8147551,12.3674661,83233,832,47.853338,12.342372,4.681293221
Oberwinkl 4 ¬∑ 83355 Grabenst√§tt,47.8279424,12.5210753,83355,833,47.8478,12.8221,22.57594427
Robert-Bosch-Stra√üe 10 ¬∑ 89343 Jettingen-Scheppach,48.4114033,10.4400534,89343,893,48.376357,10.846746,30.27956428
Priener Stra√üe 10 ¬∑ 83233 Bernau,47.8204188,12.3618758,83233,832,47.853338,12.342372,3.939297401
Wertinger Stra√üe 23 ¬∑ 86441 Zusmarshausen,48.4033659,10.5979471,86441,864,48.254594,10.986705,33.1610408
Rosenheimer Stra√üe 83 ¬∑ 83064 Raubling,47.8045991,12.119854,83064,830,47.85028,12.13702,5.238641266
Hery-Park 2900 ¬∑ 86368 Gersthofen,48.4232852,10.8637069,86368,863,48.356362,10.963932,10.49501667
Verdistra√üe 142 ¬∑ 81247 Muenchen,48.1684361,11.4659094,81247,812,48.142582,11.481988,3.112437421
Augsburger Stra√üe 42 ¬∑ 86368 Gersthofen,48.4191732,10.8793727,86368,863,48.356362,10.963932,9.368519339
Carl-Benz Stra√üe 6 ¬∑ 73235 Weilheim-Teck,48.6240101,9.5476211,73235,732,48.706856,9.421793,13.04808505
Augsburger Stra√üe 25 ¬∑ 86477 Adelsried,48.4239529,10.7201665,86477,864,48.254594,10.986705,27.25355334
Verdistra√üe 141 ¬∑ 81247 Muenchen,48.1684361,11.4659094,81247,812,48.142582,11.481988,3.112437421
Aschauer Stra√üe 6 ¬∑ 83112 Frasdorf,47.8022122,12.2920906,83112,831,47.801931,12.176123,8.661553126
Chiemgaustra√üe 185 ¬∑ 81549 M√ºnchen,48.1086883,11.6129653,81549,815,48.112334,11.577599,2.656858768
M√ºnchener Stra√üe 32 ¬∑ 83629 Weyarn,47.8536282,11.818675,83629,836,47.890484,11.504948,23.75648901
Wendling 14 ¬∑ 83737 Irschenberg,47.8266622,11.8981731,83737,837,47.693537,11.771805,17.5598841
Innsbrucker Ring 142 ¬∑ 81669 Muenchen,48.1149465,11.6170179,81669,816,48.130943,11.617161,1.778761362
Teisendorfer Stra√üe 16 ¬∑ 83451 Piding,47.7673316,12.8940479,83451,834,47.81888,12.95544,7.340792922
Innsbrucker Ring 149 ¬∑ 81669 Muenchen,48.1146395,11.6177148,81669,816,48.130943,11.617161,1.813332475
Winterbruckenweg 53 ¬∑ 86316 Derching,48.407174,10.9513355,86316,863,48.356362,10.963932,5.726108693
Traunsteiner Stra√üe 19 ¬∑ 83313 Siegsdorf,47.825191,12.6374686,83313,833,47.8478,12.8221,14.0082164
Hauptstra√üe 7 ¬∑ 86559 Adelzhausen,48.3571145,11.137689,86559,865,48.243079,10.99155,16.66255569
Hauptstra√üe 1 ¬∑ 85235 Odelzhausen,48.3077214,11.200111,85235,852,48.253313,11.439904,18.74732182
Laimeringer Stra√üe 2 ¬∑ 86453 Dasing,48.3895363,11.068838,86453,864,48.254594,10.986705,16.18720064
Gadastra√üe 1 ¬∑ 85232 Bergkirchen,48.2486732,11.3437838,85232,852,48.253313,11.439904,7.135532758
Hauptstra√üe 17 ¬∑ 85235 Odelzhausen,48.3077214,11.200111,85235,852,48.253313,11.439904,18.74732182
Salzstra√üe 10 ¬∑ 83454 Anger,47.8013487,12.8651896,83454,834,47.81888,12.95544,7.015923519
Bab A8 ¬∑ 83451 Piding,47.7802898,12.8788042,83451,834,47.81888,12.95544,7.153916998
Laimeringer Str 10 ¬∑ 86453 Dasing,48.3896639,11.0664515,86453,864,48.254594,10.986705,16.13503602
Innsbrucker Ring 153 ¬∑ 81669 M√ºnchen,48.113721,11.6170349,81669,816,48.130943,11.617161,1.915021902
BAB A8 Samerberg S√É¬ºd ¬∑ 83101 Rohrdorf,47.8021606,12.1766494,83101,831,47.801931,12.176123,0.046878239
Bergstra√üe 2 ¬∑ 83364 Neukirchen,47.832408,12.7426643,83364,833,47.8478,12.8221,6.170725075
Rudolf-Diesel-Stra√üe 2. ¬∑ 85235 Odelzhausen,48.3070872,11.2041573,85235,852,48.253313,11.439904,18.44129105
Bab A8 / Hochfelln Sued ¬∑ 83346 Bergen / Chiemgau,47.8278539,12.5893569,83346,833,47.8478,12.8221,17.51237547
"Bab A8, Kilometer 98 ¬∑ 83346 Bergen",47.8275529,12.5738864,83346,833,47.8478,12.8221,18.66239059
A8 Irschenberg Sued ¬∑ 83737 Irschenberg,47.829467,11.9065143,83737,837,47.693537,11.771805,18.16156634
"BAB A8, Geilenbach 13 ¬∑ 86368 Gersthofen",48.4185749,10.8116177,86368,863,48.356362,10.963932,13.20452429
BAB A8 Augsburg Ost ¬∑ 86169 Augsburg,48.4123585,10.9128124,86169,861,48.362618,10.900348,5.606952709
"BAB A8, Bergstra√üe 105 ¬∑ 75223 Niefern-√ñschelbronn",48.9046407,8.7762013,75223,752,48.96059,8.62116,12.92184128
A8 Aichen Nord ¬∑ 89191 Nellingen,48.5181227,9.7799889,89191,891,48.456817,10.029649,19.62169773
An der A8 ¬∑ 89331 Burgau,48.4257216,10.3837344,89331,893,48.376357,10.846746,34.61911702
Autobahn S√ºd A8 ¬∑ 73344 Gruibingen,48.6038667,9.6383542,73344,733,48.61274,9.84363,15.12458957
A 8 ¬∑ 71067 Sindelfingen,48.7330316,9.0467164,71067,710,48.67746,9.01241,6.672407731
BAB A8 Denkendorf Nord ¬∑ 73770 Denkendorf,48.6929264,9.3050266,73770,737,48.73334,9.31523,4.555716887
BAB A8 Leipheim S√É¬ºd ¬∑ 89340 Leipheim,48.4537948,10.1982868,89340,893,48.376357,10.846746,48.62674812
A 8/Schmieds ¬∑ 83607 Holzkirchen,47.8998659,11.7212129,83607,836,47.890484,11.504948,16.15733492
A 8 ¬∑ 83101 Rohrdorf,47.8012127,12.1898873,83101,831,47.801931,12.176123,1.031148925
A8 Holzkirchen Nord ¬∑ 83607 Holzkirchen,47.8916532,11.7316613,83607,836,47.890484,11.504948,16.90444128
Berliner Allee 10 ¬∑ 39326 Hohenwarsleben,52.177451,11.4895219,39326,393,52.174085,11.49526,0.541465467
Curt-Schr√∂ter-Stra√üe 2 ¬∑ 39179 Ebendorf,52.1839494,11.5710651,39179,391,52.130663,11.638394,7.49690036
Breiteweg 95 ¬∑ 39179 Barleben,52.1922277,11.6229081,39179,391,52.130663,11.638394,6.926699228
Gewerbestra√üe 25 ¬∑ 39167 Irxleben,52.1650553,11.4855965,39167,391,52.130663,11.638394,11.10494801
Grabower Stra√üe 2 ¬∑ 39126 Magdeburg,52.2027923,11.6660214,39126,391,52.130663,11.638394,8.238780609
Berliner Allee 7 ¬∑ 39326 Hohenwarsleben,52.177186,11.4899691,39326,393,52.174085,11.49526,0.499061832
Am Gro√üen Silberberg 2 ¬∑ 39130 Magdeburg,52.1701674,11.5707328,39130,391,52.130663,11.638394,6.372350743
Horster Stra√üe 269 ¬∑ 45968 Gladbeck,51.5577232,7.0014495,45968,459,51.5552,6.96951,2.225880323
Zum Raukler ¬∑ 39326 Hohe Boerde,52.1749473,11.4947945,39326,393,52.174085,11.49526,0.101001208
Pflaumenallee 1 ¬∑ 39343 Uhrsleben,52.1941889,11.2631681,39343,393,52.174085,11.49526,15.98032962
Cranger Stra√üe 160 ¬∑ 45891 Gelsenkirchen,51.5689215,7.0798586,45891,458,51.489934,7.084124,8.787964126
Bielefelder Stra√üe 34 ¬∑ 33378 Rheda-Wiedenbr√ºck,51.859557,8.3339446,33378,333,51.90995,8.38129,6.477503067
Cranger Stra√üe 243 ¬∑ 45891 Gelsenkirchen,51.5623228,7.0876338,45891,458,51.489934,7.084124,8.052928731
Waltroper Stra√üe 56 ¬∑ 44359 Dortmund,51.5789314,7.3874276,44359,443,51.535409,7.542785,11.78036292
Burgdorfer Stra√üe 112 ¬∑ 31275 Lehrte,52.3836526,9.9739673,31275,312,52.324278,10.225194,18.29505008
Cranger Stra√üe 215 ¬∑ 45891 Gelsenkirchen,51.5646264,7.0837721,45891,458,51.489934,7.084124,8.305451616
Preussenstra√üe 106 A ¬∑ 44532 Luenen,51.6003281,7.5308965,44532,445,51.552373,7.295071,17.14679679
Recklinghauser Stra√üe 50 ¬∑ 44581 Castrop-Rauxel,51.5887571,7.331751,44581,445,51.552373,7.295071,4.774359312
Evinger Stra√üe 517 ¬∑ 44339 Dortmund,51.5737415,7.464109,44339,443,51.535409,7.542785,6.910546818
Hebewerkstra√üe 18 ¬∑ 44581 Castrop-Rauxel,51.6066519,7.316535,44581,445,51.552373,7.295071,6.215100102
Autohof Bundesautobahn 2 ¬∑ 39365 Marienborn,52.2082508,11.1190868,39365,393,52.174085,11.49526,25.92197968
Henrichenburger Stra√üe 167 ¬∑ 44581 Castrop-Rauxel,51.6024197,7.2861185,44581,445,51.552373,7.295071,5.599220212
L√ºnener Stra√üe 239 ¬∑ 59174 Kamen,51.5916471,7.6645865,59174,591,51.569984,7.67309,2.479453038
Ph√∂nixstra√üe 4-6 ¬∑ 45968 Gladbeck,51.5540454,6.998364,45968,459,51.5552,6.96951,1.999019713
Heinrich-Hertz-Stra√üe 21b ¬∑ 31228 Peine,52.3405423,10.1876714,31228,312,52.324278,10.225194,3.125902046
Peiner Stra√üe 12 ¬∑ 31228 Peine,52.3427351,10.2401123,31228,312,52.324278,10.225194,2.289013699
M√ºhlenstra√üe 2 ¬∑ 33378 Rheda Wiedenbr√ºck,51.8349207,8.2985134,33378,333,51.90995,8.38129,10.09449463
Bochumer Stra√üe 1 ¬∑ 45663 Recklinghausen,51.570446,7.2120234,45663,456,51.60721,7.19866,4.190922348
Hebewerkstra√üe 25 ¬∑ 44581 Castrop-Rauxel,51.6066519,7.316535,44581,445,51.552373,7.295071,6.215100102
Blitzkuhlenstra√üe 97 ¬∑ 45659 Recklinghausen,51.6381524,7.1816476,45659,456,51.60721,7.19866,3.635558199
Preu√üenstra√üe 49 ¬∑ 44532 L√ºnen,,,44532,445,51.552373,7.295071,5773.20311
An der Landstra√üe ¬∑ 39291 Theessen,52.238737,12.0472269,39291,392,52.25830203,11.84105513,14.2033034
Glindenberger Weg 3 ¬∑ 39126 Magdeburg,52.2113028,11.6706746,39126,391,52.130663,11.638394,9.233019489
Kirchhellener Stra√üe 140 ¬∑ 46145 Oberhausen,51.5401274,6.8651072,46145,461,51.5019153,6.8829559,4.424813059
Hoehenweg 23-25 ¬∑ 46147 Oberhausen,51.5485788,6.851195,46147,461,51.5019153,6.8829559,5.634814506
Overbergstra√üe 33 ¬∑ 45663 Recklinghausen,51.5806892,7.2307831,45663,456,51.60721,7.19866,3.690580818
Ewaldstra√üe 81 ¬∑ 45892 Gelsenkirchen,51.5747587,7.1167848,45892,458,51.489934,7.084124,9.698865997
Luenener Stra√üe 68 ¬∑ 59174 Kamen,51.5916471,7.6645865,59174,591,51.569984,7.67309,2.479453038
Industriestra√É¬üe 19 ¬∑ 33689 Bielefeld,51.9568558,8.5783201,33689,336,52.03155,8.539489,8.720764194
Im Gewerbegebiet 1 ¬∑ 14778 Wollin b.Brandenburg,52.2891257,12.4645971,14778,147,52.410873,12.546294,14.63079843
Werler Stra√üe 390 ¬∑ 59069 Hamm,51.6236148,7.8474118,59069,590,51.66959,7.81033,5.7167193
Zuckerfabrik 1 ¬∑ 39343 Alleringersleben,52.2141114,11.1420078,39343,393,52.174085,11.49526,24.48596368
Schopsdorfer Heidestra√üe 5 ¬∑ 39291 Genthin,52.2366934,12.224001,39291,392,52.25830203,11.84105513,26.1811438
Altenderner Stra√üe 90 ¬∑ 44329 Dortmund,51.5705061,7.5172818,44329,443,51.535409,7.542785,4.282479968
Am Lohen 4 ¬∑ 38350 Helmstedt,52.2521581,10.9905735,38350,383,52.24045665,10.9958111,1.349118781
Steimker Stra√üe 15 ¬∑ 38154 K√∂nigslutter,52.3052639,10.8133608,38154,381,52.262151,10.527829,20.00578994
Horster Stra√üe 189 ¬∑ 45897 Gelsenkirchen,51.5609161,7.0464205,45897,458,51.489934,7.084124,8.312689417
Stra√üburger Stra√üe 4 ¬∑ 31275 Lehrte,52.3850022,9.953483,31275,312,52.324278,10.225194,19.64973688
Herner Stra√üe 249 ¬∑ 45659 Recklinghausen,51.5841762,7.2127575,45659,456,51.60721,7.19866,2.740112537
Kurf√ºrstenstra√üe 14 ¬∑ 31275 Lehrte,52.3852067,10.0164773,31275,312,52.324278,10.225194,15.71076231
Niedersachsenstra√üe/Hermesstra√üe 2 ¬∑ 31275 Lehrte,52.3572675,10.1177723,31275,312,52.324278,10.225194,8.167874092
Mielestra√üe 20 ¬∑ 31275 Lehrte,52.3780534,9.9988111,31275,312,52.324278,10.225194,16.49771577
Vorhelmer Stra√üe 439 ¬∑ 59269 Beckum,51.7764088,8.0142143,59269,592,51.45242085,7.525005027,49.38426348
Marientaler Stra√üe 85 ¬∑ 38350 Helmstedt,52.2431006,10.9984159,38350,383,52.24045665,10.9958111,0.343347756
Dammfeldstra√üe 1 ¬∑ 31275 Lehrte,52.4017654,9.9749332,31275,312,52.324278,10.225194,19.05273382
Am M√ºhlenhop 1 ¬∑ 38154 K√∂nigslutter,,,38154,381,52.262151,10.527829,5893.87766
Autohof Straengenbach 1 ¬∑ 59510 Lippetal,51.6960323,7.9666292,59510,595,51.579043,8.585,44.61314489
Schmalkalder Stra√üe 13 ¬∑ 45665 Recklinghausen,51.598892,7.2500665,45665,456,51.60721,7.19866,3.668831003
Buchenweg 107 ¬∑ 46147 Oberhausen,51.5454564,6.8288681,46147,461,51.5019153,6.8829559,6.119104156
An der Windm√ºhle 6 ¬∑ 30890 Barsinghausen,52.3315422,9.4207607,30890,308,52.422367,9.55072,13.40959537
Peiner Stra√üe 2 ¬∑ 38176 Wendeburg,52.3282746,10.39367,38176,381,52.262151,10.527829,11.71756368
Hansestra√üe 1 ¬∑ 33689 Bielefeld,51.9516551,8.5991676,33689,336,52.03155,8.539489,9.778619384
Schwalenbergstra√üe 44 ¬∑ 31515 Wunstorf,52.3882855,9.4551184,31515,315,52.45614,9.150692,21.97904016
Burgdorfer Stra√üe 115 ¬∑ 31275 Lehrte,52.3836526,9.9739673,31275,312,52.324278,10.225194,18.29505008
Hitzepohl-West 1 ¬∑ 32457 Porta- Westfalica,52.2190522,8.8846213,32457,324,52.281314,8.909908,7.133992638
Ruhmrischkamp 3 ¬∑ 38179 Schwuelper,52.3376389,10.4178515,38179,381,52.262151,10.527829,11.24200458
Niedersachsenstra√üe 3a ¬∑ 31275 Lehrte,52.3580276,10.1173677,31275,312,52.324278,10.225194,8.230577753
Sachsenstra√üe 149 ¬∑ 45665 Recklinghausen,51.6085973,7.2720947,45665,456,51.60721,7.19866,5.073485945
G√ºtersloher Stra√üe 24 ¬∑ 33378 Rheda-Wiedenbr√ºck,51.8349207,8.2985134,33378,333,51.90995,8.38129,10.09449463
Bielefelder Stra√üe 82 ¬∑ 33378 Rheda-Wiedenbrueck,51.859557,8.3339446,33378,333,51.90995,8.38129,6.477503067
An Der B 214 ¬∑ 38179 Schwuelper,52.3379897,10.4194236,38179,381,52.262151,10.527829,11.20049752
Kirchhellener Stra√üe 261 ¬∑ 46240 Bottrop,51.5440871,6.9175971,46240,462,51.657126,7.013951,14.22239787
Aurea 1-3 ¬∑ 33378 Rheda-Wiedenbr√ºck,51.8315588,8.2195348,33378,333,51.90995,8.38129,14.11778332
Bielefelder Stra√üe 145 ¬∑ 33378 Rheda-Wiedenbr√ºck,51.859557,8.3339446,33378,333,51.90995,8.38129,6.477503067
An Der B 83 ¬∑ 31711 Luhden,52.2336643,9.0867082,31711,317,52.09859,9.359075,23.88877864
Bielefelder Stra√üe 107 ¬∑ 33378 Rheda-Wiedenbr√ºck,51.859557,8.3339446,33378,333,51.90995,8.38129,6.477503067
Zur Obersburg 2 ¬∑ 31749 Auetal,52.2314645,9.2362272,31749,317,52.09859,9.359075,16.98546418
Hanomagstra√üe 2 ¬∑ 31867 Lauenau,52.2759107,9.3523698,31867,318,51.98365554,9.261288456,33.0866575
Verler Stra√üe 298 ¬∑ 33332 Guetersloh,51.8925974,8.411082,33332,333,51.90995,8.38129,2.81087581
Schwarzer Weg 109 ¬∑ 31224 Peine,52.3337374,10.2364293,31224,312,52.324278,10.225194,1.299719766
Kreuzstra√üe 18 ¬∑ 59302 Oelde,51.8009056,8.1774995,59302,593,51.764162,7.397249,53.82884918
Rehrener Stra√üe 28 ¬∑ 31749 Auetal,52.2373757,9.2430133,31749,317,52.09859,9.359075,17.3438921
Hansestra√üe 84 ¬∑ 38112 Braunschweig,52.3162185,10.488979,38112,381,52.262151,10.527829,6.567097698
Zum Autohof 4 ¬∑ 32457 Porta Westfalica,52.2098774,8.8730119,32457,324,52.281314,8.909908,8.331109407
Autohof Kronskamp 3 ¬∑ 30890 Barsinghausen,52.3328749,9.4147728,30890,308,52.422367,9.55072,13.571293
Senefelder Str 6 ¬∑ 33689 Bielefeld,51.9566253,8.5796507,33689,336,52.03155,8.539489,8.773305985
Marientaler Stra√üe 52b ¬∑ 38350 Helmstedt,52.2431006,10.9984159,38350,383,52.24045665,10.9958111,0.343347756
Varrelheide 210 ¬∑ 30657 Hannover,52.4238091,9.8320539,30657,306,52.3770551,9.7996098,5.645587635
Schwarzer Weg 39 ¬∑ 31224 Peine,52.330087,10.2348245,31224,312,52.324278,10.225194,0.919534927
In der Geist 110 ¬∑ 59302 Oelde,51.8118605,8.1339169,59302,593,51.764162,7.397249,50.94621834
Schwarzer Weg 23 ¬∑ 31224 Peine,52.328498,10.2339039,31224,312,52.324278,10.225194,0.755344154
Heinrich-Hertz-Stra√üe 20 ¬∑ 31228 Peine,52.3402949,10.2599094,31228,312,52.324278,10.225194,2.955718533
Hans-B√∂ckler-Stra√üe 60 ¬∑ 30851 Langenhagen,52.4323268,9.731293,30851,308,52.422367,9.55072,12.29337271
Vahrenwalderstra√üe 285 ¬∑ 30179 Hannover,52.4173673,9.7326362,30179,301,52.374458,9.741956,4.813018812
Hauptstra√üe 28A ¬∑ 38110 Braunschweig,52.3263724,10.5138117,38110,381,52.262151,10.527829,7.204440788
Hauptstra√üe 1 ¬∑ 38110 Braunschweig,52.3263724,10.5138117,38110,381,52.262151,10.527829,7.204440788
Havelser Stra√üe 10 ¬∑ 30823 Garbsen,52.4254264,9.6057611,30823,308,52.422367,9.55072,3.747715053
Hansestra√üe 47A ¬∑ 38112 Braunschweig,52.3073694,10.4762485,38112,381,52.262151,10.527829,6.131208888
Hansestra√üe 34 ¬∑ 38112 Braunschweig,52.3162185,10.488979,38112,381,52.262151,10.527829,6.567097698
Rendsburger Stra√üe 1 ¬∑ 30659 Hannover,52.4204689,9.8311207,30659,306,52.3770551,9.7996098,5.279624016
In Den Lohbalken 1 ¬∑ 38165 Lehre,52.3108343,10.6349426,38165,381,52.262151,10.527829,9.076737739
Berliner Heerstra√üe 2 ¬∑ 38165 Lehre,52.3146406,10.6369514,38165,381,52.262151,10.527829,9.442116062
Berenbosteler Stra√üe 92 ¬∑ 30823 Garbsen,52.4256825,9.5951892,30823,308,52.422367,9.55072,3.03782537
Kirchhorster Stra√üe 24 ¬∑ 30659 Hannover,52.4154427,9.8271867,30659,306,52.3770551,9.7996098,4.660602703
Bremer Stra√üe 4 ¬∑ 30823 Garbsen,52.4305907,9.6149017,30823,308,52.422367,9.55072,4.446832983
Bremer Stra√üe 3 ¬∑ 30827 Garbsen,52.4257897,9.6223678,30827,308,52.422367,9.55072,4.873179402
Langenforther Stra√üe 105 ¬∑ 30657 Hannover,52.4248194,9.7816703,30657,306,52.3770551,9.7996098,5.448814128
Pr√º√üentrift 77 ¬∑ 30657 Hannover,52.4155616,9.7814388,30657,306,52.3770551,9.7996098,4.455700858
Hannoversche Stra√üe 52 ¬∑ 30855 Langenhagen,52.4364781,9.6775474,30855,308,52.422367,9.55072,8.740858049
Auf der Horst 64 ¬∑ 30823 Garbsen,52.4212395,9.5955103,30823,308,52.422367,9.55072,3.039884568
Jaedekamp 19 ¬∑ 30419 Hannover,52.4146487,9.6441762,30419,304,52.414599,9.643312,0.05887221
Am Leineufer 52 ¬∑ 30419 Hannover,52.4185178,9.6351621,30419,304,52.414599,9.643312,0.703833198
Vahrenwalder Stra√üe 323 ¬∑ 30851 Langenhagen,52.4068551,9.7348255,30851,308,52.422367,9.55072,12.60507531
A2 Buckautal Nord ¬∑ 14793 Ziesar,52.2674295,12.3594732,14793,147,52.410873,12.546294,20.38390029
A2 Buckautal Sued ¬∑ 14793 Ziesar,52.2506735,12.3102426,14793,147,52.410873,12.546294,23.97076598
"BAB A2, Brockweg 30 ¬∑ 33334 G√ºtersloh",51.89529,8.37483,33334,333,51.90995,8.38129,1.689293422
A2 Bottrop Sued ¬∑ 46242 Bottrop,51.5040546,6.9361389,46242,462,51.657126,7.013951,17.84978295
BAB A2 B√É¬∂rde Nord ¬∑ 39343 Hohe B√É¬∂rde,,,39343,393,52.174085,11.49526,5900.125045
BAB A2 Boerde S√É¬ºd ¬∑ 39343 Hohe B√É¬∂rde,52.187579,11.3987219,39343,393,52.174085,11.49526,6.750973766
A 2/Brockweg ¬∑ 33334 G√ºtersloh,51.8976991,8.3751663,33334,333,51.90995,8.38129,1.425549765
A 2 ¬∑ 38350 Helmstedt,52.2500973,11.0007967,38350,383,52.24045665,10.9958111,1.12444703
A 2 ¬∑ 31275 Lehrte,52.3816722,10.0229914,31275,312,52.324278,10.225194,15.14351165
A 2 ¬∑ 33719 Bielefeld,52.0241284,8.635512,33719,337,51.9113,8.65948,12.65294015
A 2/Ostendor ¬∑ 59069 Hamm,51.6319685,7.8763418,59069,590,51.66959,7.81033,6.183948155
A 2 ¬∑ 31749 Auetal,52.2314075,9.2393328,31749,317,52.09859,9.359075,16.87643505
Helmstedt S√ºd / BAB A2 ¬∑ 38350 Helmstedt,52.2500973,11.0007967,38350,383,52.24045665,10.9958111,1.12444703
A2 Zweidorfer Holz Nord ¬∑ 38176 Wendeburg,52.3408617,10.3546232,38176,381,52.262151,10.527829,14.67336942
A2 Garbsen Nord ¬∑ 30823 Garbsen,52.4220981,9.5535527,30823,308,52.422367,9.55072,0.19440102
A2 Garbsen Sued ¬∑ 30823 Garbsen,52.4212205,9.5649726,30823,308,52.422367,9.55072,0.974862337
A2 Zweidorfer Holz Sued ¬∑ 38176 Wendeburg,52.3386125,10.3610697,38176,381,52.262151,10.527829,14.17272747
Im Zengerott 1 ¬∑ 59069 Hamm,51.6298575,7.8713971,59069,590,51.66959,7.81033,6.104929901
Brauckstra√üe 160 ¬∑ 45892 Gelsenkirchen,51.5757565,7.0977131,45892,458,51.489934,7.084124,9.589207022
Am Speckenbach 28 ¬∑ 32107 Bad Salzuflen,52.073243,8.6666502,32107,321,52.167461,8.633353,10.7203757
An Der Bab2 ¬∑ 31749 Auetal,52.2314075,9.2393328,31749,317,52.09859,9.359075,16.87643505
Zeppelinstra√üe 2 ¬∑ 59069 Hamm,51.6207822,7.8638754,59069,590,51.66959,7.81033,6.565400215
Merkurstra√üe 57 ¬∑ 67663 Kaiserslautern,49.442197,7.7206411,67663,676,49.4431806,7.774825,3.919015189
Wolfsau 4 ¬∑ 66130 Saarbr√ºcken,49.20958,7.02703,66130,661,49.23945,6.989358,4.303038098
Obere Kaiserstra√üe 279 ¬∑ 66386 Sankt Ingbert,49.2835284,7.1624686,66386,663,49.248752,6.862715,22.09113784
Ensheimer Stra√üe 162 ¬∑ 66386 St. Ingbert,49.2682844,7.1062297,66386,663,49.248752,6.862715,17.80507239
Metzer Stra√üe 121 ¬∑ 66117 Saarbruecken,49.2111382,6.964416,66117,661,49.23945,6.989358,3.632005946
Amselstra√üe 10 ¬∑ 68307 Mannheim,49.5558585,8.4587044,68307,683,49.526928,8.505668,4.672404467
Kirchheimer Str 58 ¬∑ 67269 Gruenstadt,49.5591589,8.1694473,67269,672,49.537156,8.180606,2.575652805
Merkurstra√üe 20 ¬∑ 67663 Kaiserslautern,49.442197,7.7206411,67663,676,49.4431806,7.774825,3.919015189
Mainzerstra√üe 110 ¬∑ 67657 Kaiserslautern,49.4556403,7.7964793,67657,676,49.4431806,7.774825,2.090437165
Roetelstra√üe 35 ¬∑ 74172 Neckarsulm,49.1942456,9.2351573,74172,741,49.1843377,9.2252668,1.315443491
S√ºdstra√üe 64 ¬∑ 66386 St. Ingbert,49.2775962,7.1312361,66386,663,49.248752,6.862715,19.74721492
Kirchheimer Stra√üe 45 A ¬∑ 67269 Gr√ºnstadt,49.5580364,8.172126,67269,672,49.537156,8.180606,2.401044995
Obere Kaiserstra√üe 256 ¬∑ 66386 St. Ingbert,49.2835284,7.1624686,66386,663,49.248752,6.862715,22.09113784
Mainzer Stra√üe 140 ¬∑ 67657 Kaiserslautern,49.4572633,7.8014435,67657,676,49.4431806,7.774825,2.480874164
Provinzialstra√üe 2 ¬∑ 66130 Saarbruecken,49.1999197,7.0632879,66130,661,49.23945,6.989358,6.939118984
Daimlerstra√üe 23 ¬∑ 67269 Gr√ºnstadt,,,67269,672,49.537156,8.180606,5563.373958
St. Ingberter Stra√üe 120 ¬∑ 66386 Sankt Ingbert,49.2660334,7.1545909,66386,663,49.248752,6.862715,21.26919281
Am Feuerwehrturm 2 ¬∑ 66849 Landstuhl,49.4155974,7.5802129,66849,668,49.4122,7.5489,2.296531959
Wormser Stra√üe 121 ¬∑ 67227 Frankenthal,49.5505399,8.3528396,67227,672,49.537156,8.180606,12.51555165
Kirchheimer Stra√üe 51-53 ¬∑ 67269 Gr√ºnstadt,49.5580364,8.172126,67269,672,49.537156,8.180606,2.401044995
Metzer Stra√üe 114 ¬∑ 66117 Saarbruecken,49.218425,6.9692807,66117,661,49.23945,6.989358,2.755201454
Neum√ºhler Weg 40 ¬∑ 66130 Saarbr√ºcken,49.1950379,7.0666171,66130,661,49.23945,6.989358,7.475044053
Mannheimer Stra√üe 125 ¬∑ 68519 Viernheim,49.5285856,8.5685363,68519,685,49.471378,8.607315,6.950333482
Mainzer Stra√üe 83 ¬∑ 67657 Kaiserslautern,49.4556403,7.7964793,67657,676,49.4431806,7.774825,2.090437165
Z√ºndholzstra√üe 3 ¬∑ 68723 Schwetzingen,49.3824172,8.5874708,68723,687,49.225891,8.517717,18.12480821
Langwiesen 2 ¬∑ 69231 Rauenberg,49.2675557,8.68791,69231,692,49.350934,8.632238,10.1116476
Seckenheimer Landstra√üe 246 ¬∑ 68163 Mannheim-Neuostheim,49.4764323,8.5236126,68163,681,49.494726,8.467645,4.52580931
Lilienthalstra√üe 210 ¬∑ 68307 Mannheim,49.5558585,8.4587044,68307,683,49.526928,8.505668,4.672404467
Saarbr√ºcker Stra√üe 6 ¬∑ 66849 Landstuhl,49.3981955,7.5602569,66849,668,49.4122,7.5489,1.760739453
Duehrener Stra√üe 28 ¬∑ 74889 Sinsheim,49.2509305,8.8686812,74889,748,49.28515,9.159708,21.45611862
Wallstadter Stra√üe 72 ¬∑ 68259 Mannheim,49.4887304,8.5433067,68259,682,49.43358,8.52883,6.221057525
Autohof Rosengartenweg 1 ¬∑ 67281 Kirchheim,49.554058,8.1857356,67281,672,49.537156,8.180606,1.915508769
Leininger Stra√üe 39-41 ¬∑ 67269 Gruenstadt,49.5463878,8.1566292,67269,672,49.537156,8.180606,2.011643807
Wattenheimer Stra√üe 28 ¬∑ 67310 Hettenleidelheim,49.5324041,8.0661953,67310,673,49.331093,8.430171,34.55259942
Schlo√üstra√üe- 43557 ¬∑ 74078 Heilbronn-Kirchhausen,49.1838601,9.1088804,74078,740,49.167185,9.24276,9.907167365
Carl-Zeiss-Stra√üe 2 ¬∑ 74078 Heilbronn-Kirchhausen,49.1803951,9.1294102,74078,740,49.167185,9.24276,8.369927015
Opelkreisel 15 ¬∑ 67663 Kaiserslautern,49.4418162,7.7046792,67663,676,49.4431806,7.774825,5.073820333
Wieslocher Stra√üe 38 ¬∑ 69231 Rauenberg,49.2700543,8.7011508,69231,692,49.350934,8.632238,10.28783328
Kaiserstra√üe 87 ¬∑ 66892 Bruchmuehlbach-Miesau,49.3816794,7.4361159,66892,668,49.4122,7.5489,8.839328158
Carl-Benz Stra√üe 28 ¬∑ 67227 Frankenthal,49.5437327,8.3364826,67227,672,49.537156,8.180606,11.27112054
Frankenthaler Stra√üe 86 ¬∑ 68307 Mannheim,49.5647059,8.4470031,68307,683,49.526928,8.505668,5.963248903
Kaiserstra√üe 110 ¬∑ 66849 Landstuhl,49.4143489,7.5851802,66849,668,49.4122,7.5489,2.63548124
Mainzer Stra√üe 117 ¬∑ 67657 Kaiserslautern,49.4556403,7.7964793,67657,676,49.4431806,7.774825,2.090437165
Hauptstra√üe 180 ¬∑ 69168 Wiesloch,49.2905259,8.697257,69168,691,49.392988,8.800113,13.6137911
In Dem Wat L363 ¬∑ 66877 Ramstein-Mesenbach,49.4315763,7.5555433,66877,668,49.4122,7.5489,2.207478817
Frankentaler Stra√üe 23 ¬∑ 67258 Hessheim,49.5438948,8.3117572,67258,672,49.537156,8.180606,9.492899835
Viernheimer Weg 15 ¬∑ 68307 Mannheim,49.5497476,8.4486048,68307,683,49.526928,8.505668,4.83665338
Wormser Stra√üe 128 ¬∑ 67227 Frankenthal,49.5483253,8.3538246,67227,672,49.537156,8.180606,12.55966342
Bonfelder Stra√üe 24 ¬∑ 74906 Bad Rappenau,49.2105924,9.0614676,74906,749,49.21194,9.077253,1.156408963
Ensheimer Stra√üe 152 ¬∑ 66386 St. Ingbert,49.2682844,7.1062297,66386,663,49.248752,6.862715,17.80507239
Industriestra√üe 22 ¬∑ 67227 Frankenthal,49.5377072,8.3560768,67227,672,49.537156,8.180606,12.66213132
Wormser Stra√üe 116 ¬∑ 67227 Frankenthal,49.5440662,8.353714,67227,672,49.537156,8.180606,12.51428211
Steinsfurter Stra√üe 75 ¬∑ 74889 Sinsheim,49.2399296,8.9089115,74889,748,49.28515,9.159708,18.88093693
Neulandstra√üe 35 ¬∑ 74889 Sinsheim,49.245037,8.8843292,74889,748,49.28515,9.159708,20.47362352
Neulandstra√üe 3 ¬∑ 74889 Sinsheim,49.245037,8.8843292,74889,748,49.28515,9.159708,20.47362352
Neulandstra√üe 38 ¬∑ 74889 Sinsheim,49.245037,8.8843292,74889,748,49.28515,9.159708,20.47362352
Spie√üstra√üe 2 ¬∑ 66892 Bruchm√ºhlbach-Miesau,49.4049471,7.4368113,66892,668,49.4122,7.5489,8.149637257
Buchaeckerring 40 ¬∑ 74906 Bad Rappenau,49.2123147,9.0772888,74906,749,49.21194,9.077253,0.04174574
Wilhelm-Hauff-Stra√üe 43 ¬∑ 74906 Bad Rappenau,49.2110189,9.0627531,74906,749,49.21194,9.077253,1.058243568
Weinsberger Stra√üe 29 ¬∑ 74235 Erlenbach,49.1683654,9.2673295,74235,742,49.229715,9.158383,10.44976897
Neckargartacher Stra√üe 39 ¬∑ 74172 Neckarsulm,49.1898912,9.2015728,74172,741,49.1843377,9.2252668,1.82936157
Unterlandstra√üe 49 ¬∑ 74078 Heilbronn,49.1926524,9.1469916,74078,740,49.167185,9.24276,7.515045142
Heilbronner Stra√üe 51 ¬∑ 74189 Weinsberg,49.1535912,9.2790725,74189,741,49.1843377,9.2252668,5.195274167
Rangaustra√üe 4A ¬∑ 90530 Wendelstein,49.3447047,11.1695549,90530,905,49.403379,10.691245,35.23929259
Am Fuchsgraben 1 ¬∑ 91586 Lichtenau,49.2805714,10.7130949,91586,915,49.30092,10.5762,10.18268749
Mannheimer Stra√üe 78 a ¬∑ 68782 Br√ºhl,49.4019292,8.5377498,68782,687,49.225891,8.517717,19.62834632
Kanalstra√üe 1 ¬∑ 74172 Neckarsulm,49.1852214,9.217996,74172,741,49.1843377,9.2252668,0.53749584
Mannheimer Stra√üe 103 ¬∑ 68782 Bruehl,49.4027054,8.5377155,68782,687,49.225891,8.517717,19.7142365
Haller Stra√üe 43 ¬∑ 74189 Weinsberg,49.1502187,9.2958811,74189,741,49.1843377,9.2252668,6.383692988
Am Birkfeld 8 ¬∑ 91595 Burgoberbach,49.2430287,10.6067553,91595,915,49.30092,10.5762,6.808237646
Marco-Polo-Stra√üe 1 ¬∑ 74589 Satteldorf,49.181817,10.068294,74589,745,49.111188,9.795035,21.37101061
Alexander-Baumann-Stra√üe 14 ¬∑ 74078 Heilbronn,49.1799731,9.1696753,74078,740,49.167185,9.24276,5.499954197
Haller Stra√üe 18 ¬∑ 74248 Ellhofen,49.1488244,9.3219188,74248,742,49.229715,9.158383,14.90459632
Suesswiesenstra√üe 2 ¬∑ 74549 Wolpertshausen,49.171886,9.8594194,74549,745,49.111188,9.795035,8.215133622
Im Seefeld 2 ¬∑ 74592 Kirchberg,49.1713347,9.962074,74592,745,49.111188,9.795035,13.86994574
Eckartsh√§userstra√üe 67 ¬∑ 74532 Ilshofen,49.1522704,9.9214447,74532,745,49.111188,9.795035,10.26922654
Ambergerstra√üe 47 ¬∑ 92289 Ursensollen,49.4057118,11.7616516,92289,922,49.43343,11.88474,9.421848891
Rudolf-Diesel-Stra√üe 5 ¬∑ 91522 Ansbach,49.2573358,10.6154858,91522,915,49.30092,10.5762,5.622144376
Rother Stra√üe 15 ¬∑ 91126 Schwabach,49.323719,11.0396987,91126,911,49.337413,11.014337,2.386685934
Crailsheimer Stra√üe 32 ¬∑ 74532 Ilshofen,49.1709485,9.9251423,74532,745,49.111188,9.795035,11.56430123
Angerstra√üe 2-6 ¬∑ 91126 Schwabach,49.3236541,11.0309498,91126,911,49.337413,11.014337,1.946767906
Zeilbaumweg 11 ¬∑ 74613 √ñhringen,49.1979237,9.4907019,74613,746,49.20091526,9.527040807,2.661181147
Hersbrucker Stra√üe 1 ¬∑ 92283 Lauterhofen,49.4118106,11.4789853,92283,922,49.43343,11.88474,29.44627259
An der Autobahn 1 ¬∑ 91126 Kammerstein,49.3114613,11.0020571,91126,911,49.337413,11.014337,3.01981848
Heilbronner Stra√üe 20 ¬∑ 74626 Bretzfeld,49.190085,9.441471,74626,746,49.20091526,9.527040807,6.333363785
Rother Stra√üe 13 ¬∑ 91126 Schwabach,49.3242624,11.0382242,91126,911,49.337413,11.014337,2.265953717
Gewerbegebiet 12 ¬∑ 92546 Schmidgaden-Trisching,49.4354425,12.0562582,92546,925,49.453154,12.174771,8.791604856
Westallee/Rudolf-Diesel-Stra√üe 4 ¬∑ 74613 √ñhringen,49.198714,9.4757108,74613,746,49.20091526,9.527040807,3.73752463
√ñhringer Stra√üe 3 ¬∑ 74626 Bitzfeld,49.1900266,9.444939,74626,746,49.20091526,9.527040807,6.087444101
Wollreffenweg 44 ¬∑ 74613 √ñhringen,49.2055619,9.5120711,74613,746,49.20091526,9.527040807,1.204075992
Vetterstra√üe 1 ¬∑ 91522 Ansbach,49.2618277,10.5840268,91522,915,49.30092,10.5762,4.383784116
Siemensstra√üe 15 ¬∑ 74613 Oehringen,49.2067155,9.5200572,74613,746,49.20091526,9.527040807,0.820605318
Robert-Bosch-Stra√üe 1 ¬∑ 74632 Neuenstein,49.2111721,9.5903791,74632,746,49.20091526,9.527040807,4.740648249
Hohe Birke 5 ¬∑ 92283 Lauterhofen,49.4069007,11.5447232,92283,922,49.43343,11.88474,24.77071712
Am Eichelberg 2 ¬∑ 91567 Herrieden,49.2586319,10.5016689,91567,915,49.30092,10.5762,7.165249649
Ansbacher Stra√üe 42 ¬∑ 91589 Aurach,49.2524058,10.4346059,91589,915,49.30092,10.5762,11.60223718
Steinauer Weg ¬∑ 91589 Aurach,49.2532348,10.4267423,91589,915,49.30092,10.5762,12.06932732
Heilbronner Stra√üe 17 ¬∑ 74613 √ñhringen,49.2017762,9.4951439,74613,746,49.20091526,9.527040807,2.319448715
Ansbacher Stra√üe 20 ¬∑ 91589 Aurach,49.2475416,10.4184684,91589,915,49.30092,10.5762,12.89083274
Hohebuch 36 ¬∑ 74638 Waldenburg,49.2121738,9.6588902,74638,746,49.20091526,9.527040807,9.659983148
Autohof Vogelherd 4 ¬∑ 91236 Alfeld,49.4101789,11.5447168,91236,912,49.690991,11.630317,31.82964895
Waidhauser Stra√üe 35 ¬∑ 92648 Vohenstrau√ü,49.6190711,12.3519751,92648,926,49.66344,12.14901,15.42509865
"Am Hockenheimring, Fahrerlager 3 ¬∑ 68766 Hockenheim",49.3217765,8.5675203,68766,687,49.225891,8.517717,11.25756289
Hohenlohe S√ºd A6 ¬∑ 74632 Neuenstein,49.2149496,9.598704,74632,746,49.20091526,9.527040807,5.434864864
BAB A6 Frankenh√É¬∂he S√É¬ºd ¬∑ 91589 Aurach,49.2464705,10.4153966,91589,915,49.30092,10.5762,13.14360846
Frankenhoehe Nord ¬∑ 91589 Aurach,49.2425222,10.3538795,91589,915,49.30092,10.5762,17.38773889
Bab A6 / Goldene Bremm Sued ¬∑ 66117 Saarbruecken,49.2038368,9.6751953,66117,661,49.23945,6.989358,195.0895545
Bab A6 ¬∑ 66424 Homburg,49.3576732,7.3316267,66424,664,49.229229,7.410162,15.37603064
An der A6 ¬∑ 66117 Saarbr√ºcken,49.2111483,6.9755967,66117,661,49.23945,6.989358,3.301867898
A 6 ¬∑ 68766 Hockenheim,49.3284374,8.5624717,68766,687,49.225891,8.517717,11.85584355
A 6 ¬∑ 66914 Waldmohr,49.3721055,7.3735463,66914,669,49.212614,7.618179,25.08509729
A 6 ¬∑ 92278 Illschwang,49.4234197,11.6928015,92278,922,49.43343,11.88474,13.92571734
A6 Kammersteiner Land Nord ¬∑ 91126 Kammerstein,49.3081925,10.9700719,91126,911,49.337413,11.014337,4.566127758
Bab A6 / Oberfaelzer Alb Nord ¬∑ 92278 Illschwang,49.4241864,11.6916481,92278,922,49.43343,11.88474,14.00224206
A6 Kraichgau Nord ¬∑ 74889 Sinsheim,49.2420328,8.8856288,74889,748,49.28515,9.159708,20.4578883
Bab 6 ¬∑ 91126 Kammerstein,49.3048159,10.9586661,91126,911,49.337413,11.014337,5.423922095
Schwarzwaldstra√üe 5 ¬∑ 74889 Sinsheim,49.246625,8.8948387,74889,748,49.28515,9.159708,19.69058829
Bab A6 / Pfalz ¬∑ 67319 Wattenheim,49.5102506,8.0205188,67319,673,49.331093,8.430171,35.70516637
"Bab A6, Hohenlohe Nordseite ¬∑ 74632 Neuenstein",49.2149496,9.598704,74632,746,49.20091526,9.527040807,5.434864864
A6 Am Hockenheimring West ¬∑ 68766 Hockenheim,49.3201786,8.5680187,68766,687,49.225891,8.517717,11.10128435
Rudolfstra√üe 7 ¬∑ 65510 Idstein,50.2240331,8.2547209,65510,655,50.2968102,8.2538528,8.092679585
Frankfurter Stra√üe 13 ¬∑ 65551 Limburg-Lindenholzhausen,50.3726911,8.1218983,65551,655,50.2968102,8.2538528,12.60581718
Mundipharma Stra√üe 1 ¬∑ 65549 Limburg an der Lahn,50.3986009,8.0752596,65549,655,50.2968102,8.2538528,16.99114331
Limburger Stra√üe 51-53 ¬∑ 65604 Elz,50.406513,8.0366739,65604,656,50.413358,8.035598,0.764938311
Kapellenstra√üe 10 ¬∑ 65555 Limburg,50.4156133,8.0638143,65555,655,50.2968102,8.2538528,18.87530788
Schneiderstra√üe 11 ¬∑ 40764 Langenfeld,51.1201504,6.9701832,40764,407,51.169791,6.936066,6.011007456
Wiesbadener Stra√üe 77 ¬∑ 65510 Idstein,50.2177659,8.263512,65510,655,50.2968102,8.2538528,8.816108839
Industriestra√üe 26 ¬∑ 56412 Heiligenroth,50.4491075,7.8506235,56412,564,50.447712,7.850348,0.156393852
Westerwaldstra√üe 23 ¬∑ 56587 Oberhonnefeld,50.5606263,7.5270599,56587,565,50.5925207,7.5304652,3.554638084
Sternbuschweg 103a ¬∑ 47057 Duisburg,51.4272,6.7919933,47057,470,51.435404,6.761495,2.302693717
Elzer Stra√üe 19 ¬∑ 65556 Limburg A.D. Lahn,50.4027258,8.0435018,65556,655,50.2968102,8.2538528,19.01217887
Idsteiner Stra√üe 50 ¬∑ 65527 Niedernhausen,50.1666,8.3079951,65527,655,50.2968102,8.2538528,14.98213163
Olpener Stra√üe 498 ¬∑ 51109 K√∂ln,50.9459101,7.0669942,51109,511,50.94013,7.02626,2.925441376
Max-Planck-Stra√üe 81 ¬∑ 40699 Erkrath,51.2003612,6.9393685,40699,406,51.215981,6.966963,2.590733217
Zeithstra√üe 321 ¬∑ 53721 Siegburg,50.8000454,7.2118403,53721,537,50.799617,7.195785,1.129350789
Pauline-Christmann-Stra√üe 1 ¬∑ 51107 Koeln,50.9257983,7.0625075,51107,511,50.94013,7.02626,2.998670937
Rheinstra√üe 35 ¬∑ 56424 Mogendorf,50.4885616,7.7548309,56424,564,50.447712,7.850348,8.144603874
Westerwaldstra√üe 8 ¬∑ 56587 Oberhonnefeld-Gierend,50.5606263,7.5270599,56587,565,50.5925207,7.5304652,3.554638084
Hardt 76 ¬∑ 40764 Langenfeld,51.1195,6.973796,40764,407,51.169791,6.936066,6.180538605
R√∂srather Stra√üe 521B/L√º ¬∑ 51107 K√∂ln,50.9173381,7.0902515,51107,511,50.94013,7.02626,5.151362063
Sch√∂nbornstra√üe 11 ¬∑ 63741 Aschaffenburg,49.9951707,9.115508,63741,637,49.973467,9.150821,3.492689691
Hochdahler Stra√üe 192 ¬∑ 40724 Hilden,51.1836272,6.93904,40724,407,51.169791,6.936066,1.552420752
Stixchesstra√üe 123 ¬∑ 51377 Leverkusen,51.0546646,7.0722379,51377,513,51.087205,7.103597,4.230019449
Berliner Stra√üe 462 ¬∑ 51061 Koeln,50.9933587,7.0325495,51061,510,51.002995,6.974744,4.184733817
Berg. Gladbacher Stra√üe 388 ¬∑ 51067 Koeln,50.96889,7.0420529,51067,510,51.002995,6.974744,6.048136487
Berliner Stra√üe 90 ¬∑ 47138 Duisburg,51.4802565,6.8085829,47138,471,51.462389,6.733861,5.5437781
Roesrather Stra√üe 89 ¬∑ 51107 Koeln,50.9210003,7.0928926,51107,511,50.94013,7.02626,5.131386649
Pleistalstra√üe 231 ¬∑ 53757 Sankt Augustin-Birlinghoven,50.7484152,7.2231828,53757,537,50.799617,7.195785,6.010503825
Bergisch Gladbacher Stra√üe 244 ¬∑ 51063 K√∂ln,50.9643289,7.0196575,51063,510,51.002995,6.974744,5.326386655
Fl√∂rsheimer Stra√üe 51 ¬∑ 65795 Hattersheim-Eddersheim,50.0363056,8.4663749,65795,657,50.088786,8.435463,6.238792083
Aegidienberger Stra√üe 45 ¬∑ 53604 Bad Honnef,50.6629565,7.3013751,53604,536,50.64661,7.315041,2.057178395
Oststra√üe 17 ¬∑ 40724 Hilden,51.1770783,6.9571924,40724,407,51.169791,6.936066,1.681024631
Berg.-Gladbacher Stra√üe 417 ¬∑ 51067 K√∂ln,50.96889,7.0420529,51067,510,51.002995,6.974744,6.048136487
Bonner Stra√üe 2 ¬∑ 51379 Leverkusen,51.0666641,6.9894817,51379,513,51.087205,7.103597,8.292961217
Frankfurter Stra√üe 78 ¬∑ 53757 Sankt Augustin,50.7835469,7.2260729,53757,537,50.799617,7.195785,2.779491658
Willy-Brandt-Ring 20 ¬∑ 51373 Leverkusen,51.0230309,7.003817,51373,513,51.087205,7.103597,9.977835326
Raiffeisenstra√üe 17 ¬∑ 56594 Willroth,50.5684387,7.5265037,56594,565,50.5925207,7.5304652,2.692365593
Moenchhofallee 8 ¬∑ 65479 Raunheim,50.0340947,8.4809277,65479,654,49.992186,8.410185,6.875191672
K.-Adenauer-Ring 35 ¬∑ 47167 Duisburg-Neumuehl,51.4950288,6.810971,47167,471,51.462389,6.733861,6.456693097
Hochdahler Stra√üe 127 ¬∑ 40724 Hilden,51.1836272,6.93904,40724,407,51.169791,6.936066,1.552420752
Hauptstra√üe 132 ¬∑ 53797 Lohmar,50.8349783,7.2072617,53797,537,50.799617,7.195785,4.013809486
Schoenbornstra√üe 36 ¬∑ 63741 Aschaffenburg,49.9862819,9.1583809,63741,637,49.973467,9.150821,1.524041165
Schillerstra√üe 58 ¬∑ 63741 Aschaffenburg,49.9855777,9.1368296,63741,637,49.973467,9.150821,1.677610412
Allmannshausen 12 ¬∑ 56410 Montabaur,50.441462,7.833087,56410,564,50.447712,7.850348,1.406039739
An der Burg S√ºlz 2 ¬∑ 53797 Lohmar Burg S√ºlz,50.8410574,7.2027793,53797,537,50.799617,7.195785,4.634083042
K√∂lner Stra√üe 47 ¬∑ 51503 R√∂srath,50.9062084,7.1864457,51503,515,50.869101,7.59962,29.2749465
Birkenweg 2 ¬∑ 51503 Roesrath,50.8992275,7.1647046,51503,515,50.869101,7.59962,30.69340543
Hauptstra√üe 7 ¬∑ 53797 Lohmar,50.8349783,7.2072617,53797,537,50.799617,7.195785,4.013809486
Am Forsthaus Gravenbruch 1 ¬∑ 63263 Neu-Isenburg,50.0601005,8.7440601,63263,632,49.994889,8.677389,8.67535643
Haupstra√üe 84a ¬∑ 53797 Lohmar,50.8349783,7.2072617,53797,537,50.799617,7.195785,4.013809486
K√∂lner Stra√üe 93 ¬∑ 51503 R√∂srath,50.9062084,7.1864457,51503,515,50.869101,7.59962,29.2749465
Roesrather Stra√üe 724 ¬∑ 51107 Koeln,50.9210003,7.0928926,51107,511,50.94013,7.02626,5.131386649
Berliner Stra√üe 111 ¬∑ 51063 K√∂ln,50.9788352,7.0206573,51063,510,51.002995,6.974744,4.18851703
Alleestra√üe 18 ¬∑ 56410 Montabaur,50.4396563,7.8309008,56410,564,50.447712,7.850348,1.642807445
Bergische Landstra√üe 605 ¬∑ 40629 D√ºsseldorf,51.260612,6.9086418,40629,406,51.215981,6.966963,6.411995889
In der Neuwiese 1 ¬∑ 56412 Goergeshausen,50.4105903,7.9477645,56412,564,50.447712,7.850348,8.04081743
Kirchstra√üe 23 ¬∑ 40699 Erkrath,51.2208468,6.9282712,40699,406,51.215981,6.966963,2.748558826
Black-u.-Decker-stra√üe 9 ¬∑ 65510 Idstein,50.2171726,8.265894,65510,655,50.2968102,8.2538528,8.896576711
Isenburger Stra√üe 20 ¬∑ 63150 Heusenstamm,50.0588828,8.7868935,63150,631,50.055744,8.909382,8.751351698
Im Birkengrund ¬∑ 63179 Obertshausen,50.0623257,8.830493,63179,631,50.055744,8.909382,5.678996509
Vogelsbitze 1 ¬∑ 53604 Bad Honnef,50.6492654,7.3270661,53604,536,50.64661,7.315041,0.897795329
Frankfurter Stra√üe 6 ¬∑ 63263 Neu-Isenburg,50.0578768,8.6953919,63263,632,49.994889,8.677389,7.121015519
Rottbitzer Stra√üe 65 ¬∑ 53604 Bad Honnef,50.6501122,7.3286962,53604,536,50.64661,7.315041,1.038553353
O.-v.-Nell-Breuning 4 ¬∑ 51503 Roesrath,50.9069612,7.1559587,51503,515,50.869101,7.59962,31.40445599
Frankfurter Stra√üe 110 ¬∑ 63150 Heusenstamm,50.0583545,8.7945475,63150,631,50.055744,8.909382,8.203156828
Br√ºsseler Stra√üe 2 ¬∑ 65552 Limburg,50.3897423,8.0993147,65552,655,50.2968102,8.2538528,15.06807332
Heusenstammer Stra√üe 43 ¬∑ 63179 Obertshausen,50.0648107,8.8379329,63179,631,50.055744,8.909382,5.199084115
Loikumer Rott 2 ¬∑ 46499 Hamminkeln,51.7410005,6.593663,46499,464,51.834455,6.701539,12.76882572
Gewerbegebiet Am Dachsberg 8 ¬∑ 53604 Bad Honnef,50.6519444,7.3433333,53604,536,50.64661,7.315041,2.081068469
Limburger Stra√üe 108 ¬∑ 65611 Brechen,50.3630303,8.1598267,65611,656,50.413358,8.035598,10.43484621
B 448 ¬∑ 63110 Rodgau,50.0694782,8.874511,63110,631,50.055744,8.909382,2.920293506
Am Krummenweg 9 ¬∑ 40885 Ratingen,51.3383205,6.8691413,40885,408,51.252237,6.951764,11.16365583
Autohof Reimersheck 3 ¬∑ 56424 Mogendorf,50.4822711,7.7489303,56424,564,50.447712,7.850348,8.142314197
Industriestra√üe 2 ¬∑ 56412 Heiligenroth,50.4491075,7.8506235,56412,564,50.447712,7.850348,0.156393852
Koenigswinterer Stra√üe 289 ¬∑ 53639 Koenigswinter,50.690939,7.2767291,53639,536,50.64661,7.315041,5.620223527
Mainzer Stra√üe 4 ¬∑ 65550 Limburg-Linter,50.3703797,8.0852939,65550,655,50.2968102,8.2538528,14.49331658
Am Krummenweg 2 ¬∑ 40885 Ratingen,51.3388592,6.868728,40885,408,51.252237,6.951764,11.2297889
Schmachtendorfer Stra√üe 125 ¬∑ 46147 Oberhausen,51.539519,6.8172124,46147,461,51.5019153,6.8829559,6.178553319
Westmarkstra√üe 7 ¬∑ 46149 Oberhausen,51.5217616,6.8293458,46149,461,51.5019153,6.8829559,4.316682224
Aschaffenburger Stra√üe 86 ¬∑ 63801 Kleinostheim,49.9976095,9.0654326,63801,638,49.994494,9.070137,0.482795957
Aschaffenburger Str 58 ¬∑ 63801 Kleinostheim,49.9971303,9.0657581,63801,638,49.994494,9.070137,0.428843663
Beim Tor 21 ¬∑ 60549 Frankfurt Am Main,50.0486292,8.5623606,60549,605,50.084038,8.619415,5.664444924
Wiedtalstra√üe 24 ¬∑ 53577 Neustadt (Wied),50.6169253,7.4230023,53577,535,50.524575,6.991485,32.15845158
K√∂nigswinterer Stra√üe 273 ¬∑ 53639 K√∂nigswinter,50.690939,7.2767291,53639,536,50.64661,7.315041,5.620223527
Buchenweg 107 ¬∑ 46147 Oberhausen,51.5454564,6.8288681,46147,461,51.5019153,6.8829559,6.119104156
Aschaffenburger Stra√üe 16 ¬∑ 63773 Nessetal,49.9971108,9.1829898,63773,637,49.973467,9.150821,3.493111137
Im Grund 1 ¬∑ 92331 Parsberg,49.1761122,11.7297179,92331,923,49.03476,11.474309,24.34609487
Am Heerbach 1 ¬∑ 63857 Waldaschaff,49.9810075,9.2751754,63857,638,49.994494,9.070137,14.73529952
Biefangstra√üe 92 ¬∑ 46149 Oberhausen,51.5124975,6.829244,46149,461,51.5019153,6.8829559,3.899162512
Hauptstra√üe 229 ¬∑ 63879 Weibersbrunn,49.930908,9.3649126,63879,638,49.994494,9.070137,22.23920173
Beeker Stra√üe 250 ¬∑ 46446 Emmerich,51.8825783,6.1761331,46446,464,51.834455,6.701539,36.47658492
Industriestra√üe 1 ¬∑ 63768 H√∂sbach,50.0338594,9.2148331,63768,637,49.973467,9.150821,8.125596617
Hauptstra√üe 30 ¬∑ 94469 Deggendorf,48.8456799,12.9779283,94469,944,48.788887,12.895994,8.710265518
Baerndorf 7 ¬∑ 94327 Bogen,48.9145936,12.7227127,94327,943,48.863376,12.576208,12.13129225
Unterschweinstiege ¬∑ 60549 Frankfurt,50.0589114,8.5917211,60549,605,50.084038,8.619415,3.422366195
Kapellenberger Weg 1 ¬∑ 46446 Emmerich,51.8589625,6.2420945,46446,464,51.834455,6.701539,31.67782369
Kattegatweg 1 ¬∑ 46446 Emmerich,51.8801792,6.1732904,46446,464,51.834455,6.701539,36.63268476
Hauptstra√üe 163 ¬∑ 63768 H√∂sbach,50.0338594,9.2148331,63768,637,49.973467,9.150821,8.125596617
Almosenberg 4 ¬∑ 97877 Wertheim,49.7713965,9.5876617,97877,978,49.7724862,9.5794393,0.602780975
Am J√∂spershecklein 5 ¬∑ 97828 Altfeld,49.8273777,9.5443896,97828,978,49.7724862,9.5794393,6.601723025
Blaettleinsaecker 1 ¬∑ 97877 Wertheim,49.7722256,9.5762896,97877,978,49.7724862,9.5794393,0.22803672
Dekkers Waide 1 ¬∑ 46419 Isselburg,51.8181643,6.4432878,46419,464,51.834455,6.701539,17.84018231
Sebastianstra√üe 28 ¬∑ 91058 Erlangen,49.5513015,11.0304347,91058,910,49.591284,11.008751,4.712799328
Triefensteiner Stra√üe 1 ¬∑ 97828 Marktheidenfeld,49.8239631,9.5611976,97828,978,49.7724862,9.5794393,5.871802013
Unterislinger Weg 13 ¬∑ 93053 Regensburg,48.9998661,12.1111853,93053,930,48.9945501,12.1113602,0.591249933
Bocholter Stra√üe 6 ¬∑ 46419 Isselburg,51.8177675,6.4676639,46419,464,51.834455,6.701539,16.17959138
Schwanenkirchener Stra√üe 27 ¬∑ 94547 Iggensbach,48.7315998,13.1336029,94547,945,48.916002,12.882859,27.52085685
Eichhofener Stra√üe 14 ¬∑ 93152 Nittendorf/ Undorf,49.027352,11.9318324,93152,931,49.097129,12.4853312,41.06699995
Schwanenkirchner Stra√üe 26 ¬∑ 94491 Hengersberg,48.7688527,13.0614342,94491,944,48.788887,12.895994,12.32541692
Marktstra√üe 37 ¬∑ 97355 R√ºdenhausen,44.5395868,-122.7709422,97355,973,49.73103,10.172022,8585.799168
Neutraublinger Stra√üe 12 ¬∑ 93092 Barbing,49.001357,12.1974611,93092,930,48.9945501,12.1113602,6.326793684
Schillerstra√üe 80 ¬∑ 63741 Aschaffenburg,49.9855777,9.1368296,63741,637,49.973467,9.150821,1.677610412
Gewerbegebiet B√§rndorf 4 ¬∑ 94327 Bogen,48.9139459,12.7227315,94327,943,48.863376,12.576208,12.09892705
Stuttgarter Stra√üe 21 ¬∑ 97084 W√ºrzburg,49.7582071,9.9436629,97084,970,49.799515,9.936886,4.618931988
Marktstra√üe 32 ¬∑ 97355 R√ºdenhausen,44.5395868,-122.7709422,97355,973,49.73103,10.172022,8585.799168
Bajuwarenstra√üe 5 ¬∑ 93053 Regensburg,48.9974893,12.1204215,93053,930,48.9945501,12.1113602,0.737454364
Am Reitfeld 2 ¬∑ 93161 Sinzing,48.9942544,12.0326152,93161,931,49.097129,12.4853312,34.92210659
Deuerlinger Stra√üe 1 ¬∑ 93152 Nittendorf,49.0319883,11.9404883,93152,931,49.097129,12.4853312,40.35033629
Industriestra√üe 2 ¬∑ 94559 Niederwinkling,48.8720648,12.7902505,94559,945,48.916002,12.882859,8.348922902
Nuernberger Stra√üe 23 ¬∑ 90518 Altdorf,49.3845535,11.3491594,90518,905,49.403379,10.691245,47.66021224
Fraunhofer Stra√üe 3 ¬∑ 93098 Barbing,48.9536296,12.2417962,93098,930,48.9945501,12.1113602,10.55178583
An Der A3 ¬∑ 93164 Brunn,49.075614,11.9049368,93164,931,49.097129,12.4853312,42.33409996
Landshuter Stra√üe 110 ¬∑ 93053 Regensburg,49.0037142,12.122043,93053,930,48.9945501,12.1113602,1.28285494
Neumarkter Stra√üe 33a ¬∑ 90518 Altdorf b. N√ºrnberg,49.3839192,11.3658,90518,905,49.403379,10.691245,48.86676234
Junkersstra√üe 3 ¬∑ 93055 Regensburg,48.9978072,12.1491636,93055,930,48.9945501,12.1113602,2.781664307
Deusmauerer Stra√üe 1 ¬∑ 92355 Lengenfeld,49.2396228,11.6292347,92355,923,49.03476,11.474309,25.41542125
Hauptstra√üe 1 ¬∑ 97270 Kist,49.7440821,9.8417865,97270,972,49.89641,9.81834,17.02140705
Max-Planck-Stra√üe 8 ¬∑ 93055 Regensburg,48.9999672,12.1483722,93055,930,48.9945501,12.1113602,2.766560493
Erlanger Stra√üe 1 ¬∑ 91093 Hessdorf,49.6286413,10.9120718,91093,910,49.591284,11.008751,8.110526253
Mainfrankenpark 24 ¬∑ 97337 Dettelbach,49.7787138,10.0663091,97337,973,49.73103,10.172022,9.262071916
Aschbacher Stra√üe 15 ¬∑ 96132 Schl√ºsselfeld,49.7577894,10.6142368,96132,961,49.9176,10.87374,25.73179356
Bamberger Stra√üe 20 ¬∑ 96132 Schl√ºsselfeld,49.7572631,10.6216767,96132,961,49.9176,10.87374,25.38970912
Straubinger Stra√üe 15 ¬∑ 93086 W√∂rth,48.9971062,12.407261,93086,930,48.9945501,12.1113602,21.58975757
Ludwig-Erhard-Ring 2 ¬∑ 92348 Berg B Neumarkt,49.313692,11.4751971,92348,923,49.03476,11.474309,31.01589047
Kitzinger Stra√üe 38 ¬∑ 97359 Schwarzach,49.7895121,10.2154326,97359,973,49.73103,10.172022,7.211870204
Wuerzburger Stra√üe 55 ¬∑ 97318 Biebelried,49.7650764,10.08142,97318,973,49.73103,10.172022,7.530431843
Sperrwies 1 ¬∑ 94036 Passau,48.5599209,13.378401,94036,940,48.563604,13.445518,4.956101455
Schl√ºsselfelderstra√üe 32 ¬∑ 96160 Geiselwind,49.7616213,10.463781,96160,961,49.9176,10.87374,34.13403292
Wiesentheider Stra√üe 20 ¬∑ 96160 Geiselwind,49.7760938,10.4611197,96160,961,49.9176,10.87374,33.5096399
Gewerbepark 2 ¬∑ 91350 Gremsdorf,49.6985031,10.8546089,91350,913,49.864063,11.169754,29.17010649
R√∂thenbacher Stra√üe 4 ¬∑ 90571 Schwaig,49.4742568,11.2096999,90571,905,49.403379,10.691245,38.30660954
Gewerbepark B 3 ¬∑ 93086 W√∂rth an der Donau,49.0039503,12.3691748,93086,930,48.9945501,12.1113602,18.83698404
Scheinfelder Stra√üe 23 ¬∑ 96160 Geiselwind,49.7697485,10.4699819,96160,961,49.9176,10.87374,33.29431777
Scheinfelder Stra√üe 15 ¬∑ 96160 Geiselwind,49.7697485,10.4699819,96160,961,49.9176,10.87374,33.29431777
N√ºrnberger Stra√üe 25 ¬∑ 90518 Altdorf,49.3860138,11.376417,90518,905,49.403379,10.691245,49.62372317
Attelsdorf 19 ¬∑ 96132 Schl√ºsselfeld,49.7467778,10.6341119,96132,961,49.9176,10.87374,25.61614819
Rannetsreit 4 1/2 ¬∑ 94535 Eging am See,48.6895124,13.2130385,94535,945,48.916002,12.882859,34.9145016
An Der Eichelfahrt 1 ¬∑ 96152 Burghaslach,49.7399203,10.6378623,96152,961,49.9176,10.87374,26.0115823
Donaustra√üe 4 ¬∑ 94491 Hengersberg,48.765282,13.0497549,94491,944,48.788887,12.895994,11.5687311
Donaustra√üe 8 ¬∑ 94491 Hengersberg,48.765282,13.0497549,94491,944,48.788887,12.895994,11.5687311
A3 Medenbach Ost ¬∑ 65207 Wiesbaden,50.0969965,8.3527926,65207,652,50.042779,8.201213,12.3847494
A3 Limburg Ost ¬∑ 65549 Limburg A.D. Lahn,50.3949525,8.0778939,65549,655,50.2968102,8.2538528,16.58280671
Basler Stra√üe 74 ¬∑ 79713 Bad Saeckingen,47.5561748,7.9284003,79713,797,47.548968,7.946953,1.606468821
A3 Weiskirchen Nord ¬∑ 63512 Hainburg,50.0557377,8.9099858,63512,635,50.182222,9.033889,16.60865025
A 3 ¬∑ 91056 Erlangen,49.6003903,10.9277543,91056,910,49.591284,11.008751,5.924905755
A 3/AmKatzen ¬∑ 97084 W√ºrzburg,49.7492279,9.9650645,97084,970,49.799515,9.936886,5.946534754
A 3 ¬∑ 56412 Heiligenroth,50.4517654,7.8582324,56412,564,50.447712,7.850348,0.717485378
A 3 ¬∑ 42697 Solingen,51.1510302,6.9669458,42697,426,51.164653,7.081934,8.160965391
A 3 ¬∑ 63879 Weibersbrunn,49.9109409,9.3685142,63879,638,49.994494,9.070137,23.28147229
A 3 ¬∑ 97084 W√ºrzburg,49.7492279,9.9650645,97084,970,49.799515,9.936886,5.946534754
A 3 ¬∑ 56307 Dernbach,50.5448443,7.5872646,56307,563,50.26666,7.50968,31.41755764
A 3 ¬∑ 63879 Weibersbrunn,49.9109409,9.3685142,63879,638,49.994494,9.070137,23.28147229
A 3 ¬∑ 53577 Neustadt,50.6109074,7.4267207,53577,535,50.524575,6.991485,32.20350955
An der BAB A 3 ¬∑ 97355 Kleinlangheim - Haidt (S√ºd),49.7830159,10.2786961,97355,973,49.73103,10.172022,9.598749709
A3 Siegburg Ost ¬∑ 53721 Siegburg,50.8081847,7.2205391,53721,537,50.799617,7.195785,1.983327716
A3 Steigerwald Nord ¬∑ 96193 Wachenroth,49.7323177,10.7271228,96193,961,49.9176,10.87374,23.1317723
A3 Weiskirchen Sued ¬∑ 63110 Rodgau,50.054886,8.9070964,63110,631,50.055744,8.909382,0.189018825
A3 Huenxe Ost ¬∑ 46569 Huenxe,51.6364931,6.7476246,46569,465,51.656817,6.440117,21.33725518
A3 Bad Camberg West ¬∑ 65520 Bad Camberg,50.2993985,8.2349283,65520,655,50.2968102,8.2538528,1.374683356
A3 Siegburg Wst ¬∑ 53721 Siegburg,50.8081847,7.2205391,53721,537,50.799617,7.195785,1.983327716
"Bab A3, Medenbach West ¬∑ 65207 Wiesbaden",50.1102685,8.3445813,65207,652,50.042779,8.201213,12.68811955
Bab A3 / Haidt Nord ¬∑ 97355 Kleinlangheim,49.7830159,10.2786961,97355,973,49.73103,10.172022,9.598749709
Bab A3 ¬∑ 56410 Montabaur,50.4463157,7.8272865,56410,564,50.447712,7.850348,1.640303011
"BAB A3, Stetten 7a ¬∑ 94336 Hunderdorf",48.9335955,12.7079755,94336,943,48.863376,12.576208,12.39929172
Autobahn S√ºd A3 ¬∑ 91074 Herzogenaurach,49.5917726,10.9263426,91074,910,49.591284,11.008751,5.9402592
Donautal West A 3 ¬∑ 94036 Passau,48.5895984,13.3656802,94036,940,48.563604,13.445518,6.546243294
Jura Ost A3 ¬∑ 92355 Velburg,49.2705915,11.6023935,92355,923,49.03476,11.474309,27.82860006
Bab A3 Suedseite ¬∑ 96193 Wachenroth,49.7310091,10.7173914,96193,961,49.9176,10.87374,23.58538784
A3 Bayerischer Wald Sued ¬∑ 94336 Hunderdorf,48.931392,12.7054184,94336,943,48.863376,12.576208,12.10017517
Bab A3 / Jura West ¬∑ 92355 Velburg,49.272236,11.5997611,92355,923,49.03476,11.474309,27.93782415
Reichsgrafenstra√üe 35/A3 ¬∑ 94036 Passau,48.5875904,13.3659392,94036,940,48.563604,13.445518,6.433528856
A 3 ¬∑ 46569 H√ºnxe,51.6361917,6.7702394,46569,465,51.656817,6.440117,22.89284464
A 3/Autobahn ¬∑ 42697 Solingen,51.1510302,6.9669458,42697,426,51.164653,7.081934,8.160965391
Bab A3 / Hoesel ¬∑ 40883 Ratingen,51.3273087,6.8884697,40883,408,51.252237,6.951764,9.436893766
An Der Autobahn 31 ¬∑ 68789 St. Leon-Rot,49.2608657,8.610884,68789,687,49.225891,8.517717,7.801705956
Killisfeldstra√üe 32 ¬∑ 76227 Karlsruhe,48.9881413,8.4743368,76227,762,48.938505,8.367736,9.54080111
Goldsteinstra√üe 221 ¬∑ 60528 Frankfurt,50.0734195,8.6361502,60528,605,50.084038,8.619415,1.679339947
Battstra√üe 2 ¬∑ 76199 Karlsruhe,48.9664421,8.4132353,76199,761,49.009028,8.439528,5.109225731
Rastatter Stra√üe 116 ¬∑ 76199 Karlsruhe,48.9714489,8.4038504,76199,761,49.009028,8.439528,4.923151925
Am Kanal 19 ¬∑ 76689 Karlsdorf-Neuthard,49.1415311,8.5530658,76689,766,49.124781,8.58466,2.958506572
Huettenfelder Stra√üe 51 ¬∑ 69502 Hemsbach,49.5928163,8.6389927,69502,695,49.594,8.647,0.591963553
H√ºttenfelder Stra√üe 48 ¬∑ 69502 Hemsbach,49.5920412,8.6481643,69502,695,49.594,8.647,0.233416419
Josef Eicher Stra√üe 8 ¬∑ 60437 Frankfurt,50.1948233,8.6480848,60437,604,50.14939,8.674806,5.398499935
Durlacher Allee 102 ¬∑ 76137 Karlsruhe,49.0046486,8.4383735,76137,761,49.009028,8.439528,0.4941945
Ober-Eschbacher Stra√üe 142 ¬∑ 61352 Bad Homburg,50.2152557,8.6536207,61352,613,50.2202,8.609,3.222037198
Flughafenstra√üe 7 ¬∑ 64347 Griesheim,49.8596472,8.5910061,64347,643,49.812029,8.57926,5.36149685
Eppelheimer Stra√üe 78 ¬∑ 69123 Heidelberg,49.4054245,8.6515368,69123,691,49.392988,8.800113,10.84012907
Tiergartenstra√üe 5 ¬∑ 64646 Heppenheim,49.6367522,8.6181933,64646,646,49.68445,8.615973,5.306160568
Durlacher Allee 111 ¬∑ 76137 Karlsruhe,49.0044,8.44454,76137,761,49.009028,8.439528,0.631245649
Im Roedling 8 A ¬∑ 64331 Weiterstadt,49.89517,8.6001673,64331,643,49.812029,8.57926,9.365578174
Huettenfelder Stra√üe 46 ¬∑ 69502 Hemsbach,49.5928163,8.6389927,69502,695,49.594,8.647,0.591963553
Untere Wiesen 2 ¬∑ 76437 Rastatt,48.8613204,8.2397651,76437,764,48.8590984,8.238916,0.254763626
Am Autobahnzubringer 1 ¬∑ 76709 Kronau,49.2242501,8.6113659,76709,767,49.109589,8.743333,15.95665336
Obere Hardt 1 ¬∑ 76467 Bietigheim,48.8897947,8.2665971,76467,764,48.8590984,8.238916,3.968471165
Handelsstra√üe 6/1 ¬∑ 69214 Eppelheim,49.4080535,8.6261424,69214,692,49.350934,8.632238,6.366709607
Hauptstra√üe 54 C ¬∑ 69190 Walldorf / Bad,49.2967902,8.6387937,69190,691,49.392988,8.800113,15.84285901
A5 Taunusblick ¬∑ 65760 Eschborn,50.1547541,8.6011546,65760,657,50.088786,8.435463,13.90494678
Hertzstra√üe 2 ¬∑ 76275 Ettlingen,48.9408401,8.3812846,76275,762,48.938505,8.367736,1.023070512
Berliner Ring 139 ¬∑ 64625 Bensheim,49.6996922,8.6110853,64625,646,49.68445,8.615973,1.730936926
Im Steingeruest 65 ¬∑ 76437 Rastatt,48.8607667,8.235897,76437,764,48.8590984,8.238916,0.288426872
Werner-von-Siemens-Stra√üe 1 ¬∑ 64319 Pfungstadt,49.8149749,8.6210249,64319,643,49.812029,8.57926,3.01454866
Guerickestra√üe 8 ¬∑ 60488 Frankfurt,50.148154,8.6062296,60488,604,50.14939,8.674806,4.888227414
Kirrlacherstra√üe 38 ¬∑ 68789 St.Leon-Rot,49.2642248,8.5969016,68789,687,49.225891,8.517717,7.156080342
Mannheimer Stra√üe 300-302 ¬∑ 69123 Heidelberg,49.4296499,8.6456371,69123,691,49.392988,8.800113,11.89603708
Goldbeckstra√üe 1 ¬∑ 69493 Hirschberg,49.5085013,8.6556961,69493,694,49.5349,9.202465,39.57650425
Grenzhoefer Weg 35 ¬∑ 69123 Heidelberg,49.4239699,8.6386734,69123,691,49.392988,8.800113,12.17765593
Walther-Rathenau-Stra√üe 1 ¬∑ 64297 Darmstadt,49.8243483,8.651518,64297,642,49.873838,8.649862,5.504284311
Reuterallee 51 ¬∑ 64297 Darmstadt,49.8216895,8.6415959,64297,642,49.873838,8.649862,5.828859447
Waldstra√üe 18 ¬∑ 64331 Weiterstadt,49.8905209,8.6107461,64331,643,49.812029,8.57926,9.015108011
"Bab5, As Bruchsal ¬∑ 76689 Karlsdorf-Neuthard",49.1383549,8.5542147,76689,766,49.124781,8.58466,2.680468773
Amperestra√üe 1 ¬∑ 64625 Bensheim,49.6731174,8.5938856,64625,646,49.68445,8.615973,2.02818181
Killisfeldstra√üe 44 ¬∑ 76227 Karlsruhe,48.9881413,8.4743368,76227,762,48.938505,8.367736,9.54080111
Robert-Koch-Stra√üe 1 ¬∑ 64331 Weiterstadt,49.8968592,8.6115731,64331,643,49.812029,8.57926,9.712982085
An der Tagweide 2 ¬∑ 76139 Karlsruhe,49.0202963,8.4594541,76139,761,49.009028,8.439528,1.918779201
Frankfurter Landstra√üe 6 ¬∑ 64546 Moerfelden-Walldorf,50.0049438,8.5930893,64546,645,49.908839,8.500186,12.58452218
Frankfurter Landstra√üe 200 ¬∑ 61440 Oberursel,50.190435,8.5970094,61440,614,50.203529,8.596223,1.457062026
Karlsruher Stra√üe 50a ¬∑ 76275 Ettlingen,48.9581116,8.4065942,76275,762,48.938505,8.367736,3.578464323
An der B3 ¬∑ 76467 Bietigheim,48.8892743,8.2794238,76467,764,48.8590984,8.238916,4.47607804
Kammerforststra√üe (An der B35) 4 ¬∑ 76646 Bruchsal / Nordseite,49.037688,8.687786,76646,766,49.124781,8.58466,12.25552319
Westerbachstr 60 ¬∑ 60489 Roedelheim,50.123053,8.5962624,60489,604,50.14939,8.674806,6.317712975
Aschaffenburger Stra√üe 1 ¬∑ 64546 Moerfelden-Walldorf,50.0127785,8.5883978,64546,645,49.908839,8.500186,13.16789816
Vogesenstra√üe 25 ¬∑ 79258 Hartheim am Rhein,47.940699,7.630856,79258,792,48.03381,7.579161,11.04516914
Durmersheimer Stra√üe 14A ¬∑ 76316 Malsch,48.8989914,8.3126597,76316,763,48.799968,8.440567,14.45101336
Mainzer Landstra√üe 529 ¬∑ 65933 Frankfurt,50.1003347,8.6021994,65933,659,50.108755,8.527998,5.374172265
Schellengasse 53 ¬∑ 36304 Alsfeld,50.7519653,9.279112,36304,363,50.741965,9.474748,13.80943261
Am Zubringer 6 ¬∑ 76437 Rastatt,48.8593697,8.2554923,76437,764,48.8590984,8.238916,1.213037472
Sandweierer Stra√üe 47 ¬∑ 76532 Baden-Baden,48.8118948,8.19543,76532,765,48.799314,8.117906,5.847257232
Gruenberger Stra√üe 79 ¬∑ 36304 Alsfeld,50.7444349,9.2590358,36304,363,50.741965,9.474748,15.18081822
Mainzer Landstra√üe 545 ¬∑ 65933 Frankfurt,50.1003347,8.6021994,65933,659,50.108755,8.527998,5.374172265
Hersfelder Stra√üe 81 ¬∑ 36304 Alsfeld,50.7518954,9.2851854,36304,363,50.741965,9.474748,13.3829178
Vimbucher Stra√üe 75 ¬∑ 77815 B√ºhl-Vimbuch,48.7165756,8.1149589,77815,778,48.620222,7.890396,19.66557739
Voerstetter Str 33 ¬∑ 79232 March,48.0717918,7.8034019,79232,792,48.03381,7.579161,17.19407748
Bundesstra√üe 3 ¬∑ 77749 Hohberg,48.420355,7.900701,77749,777,48.393995,8.310908,30.42085287
An Der B49 ¬∑ 35447 Reiskirchen,50.592243,8.8571479,35447,354,50.469058,8.91085,14.21375948
Gr√ºnberger Stra√üe 1 ¬∑ 35447 Reiskirchen,50.6022608,8.8619089,35447,354,50.469058,8.91085,15.20999474
Am Gottesrain Bab A5 ¬∑ 35325 Muecke,,,35325,353,50.623593,8.894967,5691.719537
Gr√ºnberger Stra√üe 53 ¬∑ 36304 Alsfeld,50.7477097,9.275865,36304,363,50.741965,9.474748,14.00825024
Alte Landstra√üe 1-3 ¬∑ 77972 Mahlberg-Orschweier,48.2744658,7.7877271,77972,779,48.343101,7.870294,9.774164914
Haupstra√üe 2 ¬∑ 79359 Riegel,48.1514289,7.747673,79359,793,47.812794,7.61003,39.02323823
Autohof Pfefferhoehe 18 ¬∑ 36304 Alsfeld,50.7333292,9.2408419,36304,363,50.741965,9.474748,16.48846214
Tunibergstra√üe 2 ¬∑ 79189 Bad Krozingen,47.9570422,7.6732784,79189,791,47.925027,7.701838,4.14714431
Breisgauallee 2 ¬∑ 79336 Herbolzheim,48.2272302,7.752801,79336,793,47.812794,7.61003,47.2907385
Alte Landstra√üe 23-29 ¬∑ 77972 Mahlberg Orschweier,48.2744658,7.7877271,77972,779,48.343101,7.870294,9.774164914
An der Hessenhalle 7 ¬∑ 36304 Alsfeld,50.7383278,9.2518053,36304,363,50.741965,9.474748,15.69333422
An der BAB 5 ¬∑ 79258 Hartheim-Bremgarten,47.9340635,7.6110785,79258,792,48.03381,7.579161,11.34284627
Hauptstra√üe 201 ¬∑ 77966 Kappel-Grafenhausen,48.2922119,7.7415681,77966,779,48.343101,7.870294,11.07354537
Nikola-Tesla-Stra√üe 2 ¬∑ 77972 Mahlberg,48.2882961,7.8101408,77972,779,48.343101,7.870294,7.54476268
Am Achernsee 1 ¬∑ 77855 Achern,48.6461984,8.0359881,77855,778,48.620222,7.890396,11.08204752
Nikola-Tesla-Stra√üe 1 ¬∑ 77955 Ettenheim,48.2565786,7.8138072,77955,779,48.343101,7.870294,10.48901463
Herbolzheimer Stra√üe 1 ¬∑ 77975 Ringsheim,48.2491448,7.7659259,77975,779,48.343101,7.870294,12.99071631
Bahnhofstra√üe 1 A ¬∑ 79395 Neuenburg,47.835518,7.5755135,79395,793,47.812794,7.61003,3.609033541
Westtangente 2 ¬∑ 79395 Neuenburg,47.8137883,7.5562422,79395,793,47.812794,7.61003,4.018007556
"BAB A5, Mooswaldstra√üe 99 ¬∑ 79108 Freiburg",48.0478552,7.810487,79108,791,47.925027,7.701838,15.87203044
BAB A5 Mahlberg Ost ¬∑ 77972 Mahlberg,48.3083135,7.7919914,77972,779,48.343101,7.870294,6.962550578
Alte Stra√üe 32 ¬∑ 79576 Weil am Rhein,47.5974393,7.6007372,79576,795,47.623236,7.656689,5.081427673
Muellheimer Stra√üe 6 ¬∑ 79576 Weil Am Rhein,47.5994096,7.6131017,79576,795,47.623236,7.656689,4.206572477
A5 Buehl Ost ¬∑ 77815 Buehl,48.7538167,8.1322667,77815,778,48.620222,7.890396,23.14990889
Bab A5 / Graefenhausen West ¬∑ 64331 Weiterstadt,49.9469639,8.6092856,64331,643,49.812029,8.57926,15.15753982
A5 Breisgau Ost ¬∑ 79227 Schallstadt,47.9709472,7.7225139,79227,792,48.03381,7.579161,12.75201258
A 5 ¬∑ 35305 Gr√ºnberg,50.6053598,8.9574649,35305,353,50.623593,8.894967,4.85342182
A 5 ¬∑ 77767 Appenweier,48.5770874,7.9667864,77767,777,48.393995,8.310908,32.52259831
A 5 ¬∑ 77767 Appenweier,48.5770874,7.9667864,77767,777,48.393995,8.310908,32.52259831
A 5 ¬∑ 64625 Bensheim,49.691175,8.6028458,64625,646,49.68445,8.615973,1.204560005
An der BAB A 5Ost ¬∑ 76694 Forst,49.1544867,8.5818804,76694,766,49.124781,8.58466,3.309306402
A 5 ¬∑ 61239 Ober-M√∂rlen,50.3637332,8.6999888,61239,612,50.334033,8.529703,12.52578477
Bab A5 / Hardtwald West ¬∑ 69207 Sandhausen / Baden,49.349962,8.6300719,69207,692,49.350934,8.632238,0.190526132
A5 Bruchsal West ¬∑ 76694 Forst,49.1619419,8.5670503,76694,766,49.124781,8.58466,4.326091813
A5 Alsbach West ¬∑ 64665 Alsbach,49.1857322,8.582676,64665,646,49.68445,8.615973,55.50713259
A5 Reinhardshain Sued ¬∑ 35305 Gruenberg,51.4939455,9.5954672,35305,353,50.623593,8.894967,108.4557047
A5 Graefenhausen Ost ¬∑ 64331 Weiterstadt,49.9458352,8.61091,64331,643,49.812029,8.57926,15.05041757
"Bab A5, Am Rasthof 4-20 ¬∑ 76532 Baden-Baden",48.8085555,8.1799857,76532,765,48.799314,8.117906,4.661225432
Bab A5 / Berfa Nord ¬∑ 36304 Alsfeld,50.756718,9.3156562,36304,363,50.741965,9.474748,11.3124163
Bab A5 / Hardtwald Ost ¬∑ 69207 Sandhausen,49.3504336,8.6324885,69207,692,49.350934,8.632238,0.058525821
A 5 ¬∑ 79415 Bad Bellingen,47.7196291,7.5436578,79415,794,47.87269207,7.650652388,18.80292253
A 5 ¬∑ 79576 Weil am Rhein,47.6136716,7.589446,79576,795,47.623236,7.656689,5.151019908
A 5 ¬∑ 77972 Mahlberg / Baden,48.3011624,7.7896535,77972,779,48.343101,7.870294,7.569494853
A 5 ¬∑ 61239 Ober-M√∂rlen,50.3637332,8.6999888,61239,612,50.334033,8.529703,12.52578477
Aachener Stra√üe 561 ¬∑ 50226 Frechen,50.9382114,6.7948351,50226,502,50.937077,6.779441,1.086033902
Broichstra√üe 28 ¬∑ 51109 K√∂ln,50.93875,7.0824914,51109,511,50.94013,7.02626,3.943038612
Birkesdorfer Stra√üe 56/58 ¬∑ 52353 D√ºren,50.832693,6.4412915,52353,523,50.797392,6.476371,4.634853903
H√ºttenstra√üe 207 ¬∑ 50170 Kerpen,50.8780618,6.6014193,50170,501,51.406458,8.57568,149.7317893
Bahnstra√üe 30-32 ¬∑ 50170 Kerpen,50.8780618,6.6014193,50170,501,51.406458,8.57568,149.7317893
Olpener Stra√üe 690 ¬∑ 51109 Koeln,50.9459101,7.0669942,51109,511,50.94013,7.02626,2.925441376
Olpener Stra√üe 1026 ¬∑ 51109 K√∂ln,50.9459101,7.0669942,51109,511,50.94013,7.02626,2.925441376
Koblenzer Stra√üe 22 ¬∑ 57482 Wenden,50.9886409,7.8441382,57482,574,51.222472,8.029806,29.05304873
Auerbachstra√üe 2 ¬∑ 52249 Eschweiler,50.8240036,6.250945,52249,522,50.7740991,6.2241803,5.859270205
Am Eifeltor 1 ¬∑ 50997 K√∂ln,50.8877551,6.9249354,50997,509,50.797896,7.206712,22.16460703
Frankfurter Stra√üe 390 ¬∑ 51103 K√∂ln,50.9413615,7.029575,51103,511,50.94013,7.02626,0.269631756
Olpener Stra√üe 498 ¬∑ 51109 K√∂ln,50.9459101,7.0669942,51109,511,50.94013,7.02626,2.925441376
Berrenratherstra√üe. 574 ¬∑ 50354 Huerth,50.8967376,6.8913508,50354,503,50.84549667,6.913742423,5.910412994
Siegburger Stra√üe 490-492 ¬∑ 51105 Koeln,50.9201632,6.9857546,51105,511,50.94013,7.02626,3.603839048
Siegburger Stra√üe 406 ¬∑ 51105 K√∂ln,50.9201632,6.9857546,51105,511,50.94013,7.02626,3.603839048
Hauptstra√üe 7-15 ¬∑ 52249 Eschweiler,50.8235705,6.2636408,52249,522,50.7740991,6.2241803,6.160503412
Zum Doenges 2 ¬∑ 36208 Wildeck-Obersuhl,50.955038,10.0225182,36208,362,50.74781,9.85923,25.73646929
Frankenforster Stra√üe 12 ¬∑ 51427 Bergisch Gladbach,50.9585973,7.1423994,51427,514,50.951086,7.146015,0.872770524
Roermonder Stra√üe 615 ¬∑ 52072 Aachen-Richterich,50.8168034,6.0686514,52072,520,50.775291,6.082311,4.714750452
Pauline-Christmann-Stra√üe 1 ¬∑ 51107 Koeln,50.9257983,7.0625075,51107,511,50.94013,7.02626,2.998670937
Alter Bach 7 ¬∑ 37293 Herleshausen-Wommen,51.0161245,10.1193946,37293,372,51.338824,9.862112,40.11502571
An der Bahn 7 ¬∑ 51429 Bergisch Gladbach,50.9574842,7.1457653,51429,514,50.951086,7.146015,0.711662337
Aachener Stra√üe 40 ¬∑ 52249 Eschweiler,50.8221468,6.2300503,52249,522,50.7740991,6.2241803,5.358565043
Kerpener Stra√üe 171 ¬∑ 50170 Kerpen-Sindorf,50.9026469,6.677744,50170,501,51.406458,8.57568,143.7304291
Olper Stra√üe 47 ¬∑ 51491 Overath,50.9435095,7.2238331,51491,514,50.951086,7.146015,5.516389214
Lustheide 110 ¬∑ 51427 Bergisch Gladbach,50.948925,7.1044633,51427,514,50.951086,7.146015,2.920706468
J√ºlicher Stra√üe 128 ¬∑ 52249 Eschweiler,50.8235705,6.2636408,52249,522,50.7740991,6.2241803,6.160503412
Max-Planck Stra√üe 9 ¬∑ 50858 K√∂ln-Marsdorf,50.9219503,6.8531426,50858,508,50.960305,6.93333,7.053754004
Aachener Stra√üe 724 ¬∑ 50226 Frechen,50.9382114,6.7948351,50226,502,50.937077,6.779441,1.086033902
Hauptstra√üe 264 ¬∑ 50169 Kerpen,50.8754649,6.7381124,50169,501,51.406458,8.57568,141.1349636
Roesrather Stra√üe 89 ¬∑ 51107 Koeln,50.9210003,7.0928926,51107,511,50.94013,7.02626,5.131386649
Strangenh√§uschen 10 ¬∑ 52070 Aachen,50.7959332,6.0958906,52070,520,50.775291,6.082311,2.485918223
Rue de Wattrelos 11 ¬∑ 52249 Eschweiler,50.825206,6.2472304,52249,522,50.7740991,6.2241803,5.90920724
Kerpener Stra√üe 185 ¬∑ 50170 Kerpen,50.9026469,6.677744,50170,501,51.406458,8.57568,143.7304291
Nordstra√üe 176 ¬∑ 52353 D√ºren,50.8294122,6.4566926,52353,523,50.797392,6.476371,3.819495594
Olper Stra√üe 41 ¬∑ 51491 Overath,50.9435095,7.2238331,51491,514,50.951086,7.146015,5.516389214
Im Grossen Tal 1 ¬∑ 52353 Dueren,50.8338139,6.4593479,52353,523,50.797392,6.476371,4.222825045
Roermonder Stra√üe 504 ¬∑ 52072 Aachen,50.8168034,6.0686514,52072,520,50.775291,6.082311,4.714750452
K√∂lner Stra√üe 96 ¬∑ 51491 Overath,50.940947,7.3013584,51491,514,50.951086,7.146015,10.94138176
Koelner Stra√üe 76 ¬∑ 51491 Overath,50.9550167,7.3111086,51491,514,50.951086,7.146015,11.57273395
B√ºchlerhausen 14 ¬∑ 51766 R√ºnderoth/Engelskirchen,50.9755735,7.4167285,51766,517,51.019582,7.649179,16.98718812
Gut Burghof 2 ¬∑ 51491 Overath,50.9425521,7.2979465,51491,514,50.951086,7.146015,10.68614152
D√ºrener Stra√üe 407 ¬∑ 50858 K√∂ln,50.9210017,6.8541361,50858,508,50.960305,6.93333,7.063253651
Am Verteilerkreis Westsei ¬∑ 50968 K√∂ln,50.8919766,6.9671022,50968,509,50.797896,7.206712,19.81055777
Luxemburger Stra√üe 58 ¬∑ 50354 H√ºrth,50.8763675,6.8867308,50354,503,50.84549667,6.913742423,3.921424761
Duerener Stra√üe 168-172 ¬∑ 52249 Eschweiler,50.8200715,6.2933409,52249,522,50.7740991,6.2241803,7.053998532
Duerener Stra√üe 308 ¬∑ 52249 Eschweiler,50.8200715,6.2933409,52249,522,50.7740991,6.2241803,7.053998532
Duerener Stra√üe 415 ¬∑ 50858 Koeln,50.9214426,6.862157,50858,508,50.960305,6.93333,6.598647905
Schillingsrotter Stra√üe 28 ¬∑ 50996 Koeln,50.8855105,6.9903675,50996,509,50.797896,7.206712,18.04637536
Kapellenstra√üe 29 ¬∑ 50997 Koeln Rondorf,50.8743909,6.9346054,50997,509,50.797896,7.206712,20.91604641
Landstra√üe 7 ¬∑ 99834 Gerstungen,50.9580123,10.0571461,99834,998,50.9625,10.3153,18.08724175
Rodaer Stra√üe 72 ¬∑ 07629 Hermsdorf,50.8867768,11.8514986,7629,762,48.938505,8.367736,330.3274885
Vuerfelser Kaule 51 ¬∑ 51427 Bergisch Gladbach,50.9544259,7.114773,51427,514,50.951086,7.146015,2.219742007
Albertsthal 13 ¬∑ 51766 Engelskirchen,50.9864884,7.3899651,51766,517,51.019582,7.649179,18.50739631
Prager Ring 106 ¬∑ 52070 Aachen,50.7974087,6.1089686,52070,520,50.775291,6.082311,3.0919919
Hauptstra√üe 384 ¬∑ 52146 W√ºrselen,50.8092669,6.1439575,52146,521,50.836534,6.079894,5.426185479
Alter Deutzer Postweg 102 ¬∑ 51149 K√∂ln,50.9185629,7.0491837,51149,511,50.94013,7.02626,2.88655996
Th√ºringer Stra√üe 1 ¬∑ 36208 Wildeck,50.9499472,10.0322518,36208,362,50.74781,9.85923,25.54891734
An der Haune 1a ¬∑ 36251 Bad Hersfeld,50.8618893,9.7203897,36251,362,50.74781,9.85923,16.0030842
Carl-Benz-Stra√üe 3 ¬∑ 36251 Bad Hersfeld,50.8584631,9.7228336,36251,362,50.74781,9.85923,15.59691106
Rudolf-Diesel-Stra√üe 1 ¬∑ 36251 Bad Hersfeld,50.85277,9.7254007,36251,362,50.74781,9.85923,14.98904291
Siedlerweg 1 ¬∑ 02923 Kodersdorf,51.2256773,14.9024585,2923,292,52.624939,10.079361,365.4043487
An der Beerweinsch√§nke 2 ¬∑ 07554 Gera-Trebnitz,50.8960186,12.1278598,07554,075,50.879771,12.076573,4.025731981
Niederkainer Stra√üe 14 ¬∑ 02625 Bautzen,51.1891749,14.4626769,2625,262,53.0030542,7.9531259,488.043842
Am Ruedersdorfer Wege 1 ¬∑ 07586 Kraftsdorf,50.8979526,11.9575792,07586,075,50.879771,12.076573,8.588138141
Geraer Stra√üe 72 ¬∑ 07646 Stadtroda,50.8603282,11.7445284,7646,764,48.8590984,8.238916,335.590923
Kreckwitzer Stra√üe 2 ¬∑ 02625 Bautzen,51.1900512,14.4560154,2625,262,53.0030542,7.9531259,487.5858467
Pulsnitzer Stra√üe 31 ¬∑ 01900 Gro√ür√∂hrsdorf,51.1514,14.0207661,1900,190,53.631028,11.400551,328.0298432
Aeussere Chemnitzer Stra√üe 61 ¬∑ 09669 Frankenberg,50.9064308,13.0218887,09669,096,50.879085,13.324931,21.47142304
Lauchaer H√∂he 1 ¬∑ 99880 Waltershausen,50.913196,10.5538079,99880,998,50.9625,10.3153,17.58870544
Dresdener Stra√üe 49C ¬∑ 02625 Bautzen,51.179746,14.4020873,2625,262,53.0030542,7.9531259,484.7614426
Kraftsdorfer Stra√üe 2 ¬∑ 07629 Hermsdorf,50.8895904,11.8726345,7629,762,48.938505,8.367736,331.669754
Dresdener Stra√üe 68 ¬∑ 02625 Bautzen,51.179746,14.4020873,2625,262,53.0030542,7.9531259,484.7614426
Stadtrodaer Stra√üe 102 ¬∑ 07747 Jena,50.8869979,11.6159945,07747,077,50.89954,11.5887,2.36850694
Quirlaer Stra√üe 39 ¬∑ 07646 Stadtroda,50.8640074,11.7665568,7646,764,48.8590984,8.238916,337.0369554
Dresdner Stra√üe 106 ¬∑ 09337 Hohenstein-Ernstthal,50.804782,12.7268311,9337,933,48.8972,11.64871,225.7519712
Autohof Loebichau Bab4 ¬∑ 04626 Loebichau,50.8731445,12.2293173,4626,462,51.657126,7.013951,373.1022469
Hermsdorfer Hoehe 9 ¬∑ 07629 Hermsdorf,50.8899768,11.867631,7629,762,48.938505,8.367736,331.4263428
Hinrich-Wichern-Stra√üe 31 ¬∑ 09337 Hohenstein-Ernstthal,50.8047096,12.6994921,9337,933,48.8972,11.64871,225.0811477
Gewerbestra√üe 4 ¬∑ 99880 Laucha,50.9266646,10.5435105,99880,998,50.9625,10.3153,16.47765884
Dresdner Stra√üe 53 ¬∑ 01458 Ottendorf-Okrilla,51.1753353,13.8253314,1458,145,52.5299,13.213127,156.3783132
Zur Kuhbruecke 1 ¬∑ 01458 Ottendorf-Okrilla,51.1739578,13.8518342,1458,145,52.5299,13.213127,157.0246813
Peschelstra√üe 39 ¬∑ 01139 Dresden,51.0854155,13.6977233,01139,011,51.140075,13.801372,9.449418224
Meissner Stra√üe 13A ¬∑ 01445 Radebeul,51.1061458,13.6469141,1445,144,52.40025,13.06003,149.4596694
Siemensstra√üe 57 ¬∑ 07546 Gera,50.8809611,12.1069788,7546,754,48.947072,8.840766,317.6482873
Siemensstra√üe 58 ¬∑ 07546 Gera,50.8809611,12.1069788,7546,754,48.947072,8.840766,317.6482873
An der B 7 ¬∑ 07580 Ronneburg,50.9426137,11.7599423,07580,075,50.879771,12.076573,23.2731211
An Der Duerren Heide 1 ¬∑ 01139 Dresden,51.0938486,13.6982763,01139,011,51.140075,13.801372,8.843393486
Sachsenstra√üe 9 ¬∑ 09244 Lichtenau,50.9114003,12.9781639,9244,924,49.339825,12.534976,177.5832803
Washingtonstra√üe 12 ¬∑ 01139 Dresden,51.0747119,13.6846314,01139,011,51.140075,13.801372,10.920219
Meissner Landstra√üe 94 ¬∑ 01157 Dresden,51.0729165,13.6683664,01157,011,51.140075,13.801372,11.9161968
A9 Hermsdorfer Kreuz Ost ¬∑ 07629 Schleifreisen,50.8743705,11.8488304,7629,762,48.938505,8.367736,329.3047605
Umgehungsstra√üe 18 ¬∑ 01723 Wilsdruff,51.0546101,13.5413256,1723,172,53.09635,13.75996,227.5219881
Rudolstaedter Stra√üe 19 ¬∑ 99428 Weimar-Gelmeroda,50.9503499,11.302557,99428,994,50.989826,11.335835,4.969700793
Neue Emleber Stra√üe 2 ¬∑ 99869 Schwabhausen,50.8907392,10.7251667,99869,998,50.9625,10.3153,29.81426877
Chemnitztalstra√üe 197 ¬∑ 09114 Chemnitz,50.873862,12.9075839,9114,911,49.337413,11.014337,217.7435126
Leipziger Stra√üe 210 ¬∑ 09114 Chemnitz,50.8573104,12.8743457,9114,911,49.337413,11.014337,214.8457998
Blankenburgstra√üe 112 ¬∑ 09114 Chemnitz,50.859588,12.9123448,9114,911,49.337413,11.014337,216.7250806
Auf der Schanze 2 ¬∑ 99441 Magdala,50.9074194,11.4454277,99441,994,50.989826,11.335835,11.95440665
Leipziger Stra√üe 257 ¬∑ 09114 Chemnitz,50.8533174,12.8831361,9114,911,49.337413,11.014337,214.8884603
Leipziger Stra√üe 206 ¬∑ 09114 Chemnitz,50.8568161,12.8748851,9114,911,49.337413,11.014337,214.8267543
Chemnitztalstra√üe 170 ¬∑ 09114 Chemnitz,50.873862,12.9075839,9114,911,49.337413,11.014337,217.7435126
Industrieweg 2 ¬∑ 08393 Meerane,50.8314994,12.448659,08393,083,50.827876,12.547434,6.94903243
Waldenburger Stra√üe 175 F ¬∑ 08371 Glauchau,50.8383474,12.5421277,8371,837,47.693537,11.771805,354.1203263
Wanderslebener Stra√üe 24 ¬∑ 99869 M√ºhlberg,50.8714275,10.8263877,99869,998,50.9625,10.3153,37.23204211
Thoereyer Stra√üe 4 ¬∑ 99334 Ichtershausen,50.8894989,10.9354432,99334,993,50.50578,10.57215,49.75171036
Am Hochheimer See ¬∑ 99192 Neudietendorf,50.8977845,10.9198593,99192,991,51.059456,11.04815,20.09583369
An der B 247 ¬∑ 99869 Schwabhausen,50.8818975,10.7283998,99869,998,50.9625,10.3153,30.31132869
Ahornstra√üe 5 ¬∑ 09661 Hainichen,50.9828861,13.1100969,09661,096,50.879085,13.324931,18.97101444
Zeppelinstra√üe 2 ¬∑ 09212 Limbach-Oberfrohna,50.8240597,12.7577771,09212,092,50.81638,12.79515,2.760761209
A9 Hermsdorfer Kreuz West ¬∑ 07629 Schleifreisen,50.8754815,11.8455747,7629,762,48.938505,8.367736,329.207029
BAB A4 Frechen S√É¬ºd ¬∑ 50226 Frechen,50.9293621,6.784166,50226,502,50.937077,6.779441,0.919542875
Aralallee 1 ¬∑ 99441 Mellingen,50.93486,11.3890018,99441,994,50.989826,11.335835,7.156825039
Augustusberg 72 ¬∑ 01683 Nossen,51.0368156,13.2963001,1683,168,52.888557,12.810769,208.5728659
Waldenburger Stra√üe 115 ¬∑ 08371 Glauchau,50.8383474,12.5421277,8371,837,47.693537,11.771805,354.1203263
A4 Aachener Land Nord ¬∑ 52249 Eschweiler,50.8178474,6.2140312,52249,522,50.7740991,6.2241803,4.916610411
A4 Frechen Nord ¬∑ 50226 Frechen,50.9293621,6.784166,50226,502,50.937077,6.779441,0.919542875
Bab 4 ¬∑ 37293 Herleshausen,51.0118468,10.1552116,37293,372,51.338824,9.862112,41.70620119
"BAB A4, Schafsweg 15 ¬∑ 04626 Schm√∂lln (OT Wei√übach)",50.8571261,12.3126664,4626,462,51.657126,7.013951,379.2151784
"BAB A4 Eichelborn Nord ¬∑ 99198 Grammetal, OT Eichelborn",50.9386342,11.1585679,99198,991,51.059456,11.04815,15.49831927
"BAB A4 Eichelborn S√É¬ºd ¬∑ 99198 Grammetal, OT Eichelborn",50.9449772,11.1815291,99198,991,51.059456,11.04815,15.78432517
A4 Hoerselgau Nord ¬∑ 99880 Hoersel,50.9104644,10.5895546,99880,998,50.9625,10.3153,20.06997011
A4 Auerswalder Blick Nord ¬∑ 09244 Lichtenau,50.8930752,12.938335,9244,924,49.339825,12.534976,175.0909466
A4 Krauthausen Nord ¬∑ 99819 Krauthausen,51.0071392,10.2515143,99819,998,50.9625,10.3153,6.676385905
"BAB A4, Bolbritz 50 ¬∑ 02625 Bautzen",51.1997214,14.3321227,2625,262,53.0030542,7.9531259,479.4095527
A4 Krauthausen Sued ¬∑ 99819 Krauthausen,51.0071392,10.2515143,99819,998,50.9625,10.3153,6.676385905
Dresdner Tor Nord / A 4 ¬∑ 01723 Wilsdruff,51.0632886,13.5702518,1723,172,53.09635,13.75996,226.4372911
Dresdner Tor S√ºd / A 4 ¬∑ 01723 Wilsdruff,51.0632886,13.5702518,1723,172,53.09635,13.75996,226.4372911
A4 Oberlausitz Sued ¬∑ 02625 Bautzen,51.1983687,14.3286876,2625,262,53.0030542,7.9531259,479.2655163
"BAB A4, Teichstra√üe 72 ¬∑ 04626 Schm√∂lln (OT Wei√übach)",50.8576704,12.313621,4626,462,51.657126,7.013951,379.2634188
A 4 ¬∑ 09244 Oberlichtenau,50.9067613,12.9706774,9244,924,49.339825,12.534976,176.9815556
A 4 ¬∑ 51491 Overath,50.9461828,7.2959887,51491,514,50.951086,7.146015,10.52049425
A 4 ¬∑ 51491 Overath,50.9461828,7.2959887,51491,514,50.951086,7.146015,10.52049425
A4 Aachener Land Sued ¬∑ 52249 Eschweiler,50.8167335,6.2162285,52249,522,50.7740991,6.2241803,4.773559973
Dorfstra√üe 1a ¬∑ 16341 Panketal,52.6420277,13.5367607,16341,163,52.6814,13.59289,5.787628943
Frankfurter Chaussee 85 ¬∑ 15370 Vogelsdorf,52.5009735,13.732247,15370,153,52.592029,14.232376,35.30154389
Frankfurter Chaussee 37 ¬∑ 15370 Fredersdorf-Vogelsdorf,52.500137,13.7351968,15370,153,52.592029,14.232376,35.13774956
Rheinstra√üe 1 ¬∑ 14974 Ludwigsfelde,52.3123541,13.2381005,14974,149,52.092346,12.85912,35.5739063
Hauptstra√üe 137-14 ¬∑ 16547 Birkenwerder,52.7017133,13.3018473,16547,165,52.75113606,13.25042367,6.495641135
Darwinbogen 2 ¬∑ 15711 Koenigs Wusterhausen,52.302981,13.6013299,15711,157,52.296879,13.630884,2.121095339
Karl-Marx-Stra√üe 41 ¬∑ 15713 K√∂nigs Wusterhausen,52.31242,13.65014,15713,157,52.296879,13.630884,2.168037271
Chausseestra√üe 1 ¬∑ 15745 Wildau,52.3178469,13.6065644,15745,157,52.296879,13.630884,2.858290228
Frankfurter Chaussee 68/ ¬∑ 15370 Vogelsdorf,52.4995043,13.744112,15370,153,52.592029,14.232376,34.58249405
An der Autobahn 1 A ¬∑ 14552 Michendorf,52.3022219,13.0254711,14552,145,52.5299,13.213127,28.33557935
Am Bahnhof Lienewitz 5 ¬∑ 14548 Ferch/ Schwielowsee,52.3033767,12.9706774,14548,145,52.5299,13.213127,30.0800738
Hauptstra√üe 200 ¬∑ 16547 Birkenwerder,52.7017133,13.3018473,16547,165,52.75113606,13.25042367,6.495641135
Am Stolp 19 ¬∑ 15562 Ruedersdorf Bei Berlin,52.4706017,13.7730495,15562,155,52.471293,13.784527,0.781229807
Autohof Bab 10/b1 ¬∑ 14542 Ploetzin,52.3823588,12.8636023,14542,145,52.5299,13.213127,28.81057246
Spenglerstra√üe 2 ¬∑ 16356 Ahrensfelde,52.6084202,13.5281821,16356,163,52.6814,13.59289,9.214787188
Parkallee 1 Brandenb ¬∑ 14974 Ludwigsfelde,52.3090972,13.3137111,14974,149,52.092346,12.85912,39.25165528
Wolfslake-Ost ¬∑ 14621 Schoenwalde-Glien,52.6853282,13.0096341,14621,146,52.567344,13.102341,14.53511033
Autohof Eichstaedter Chaussee ¬∑ 16727 Oberkraemer,52.7088373,13.1042296,16727,167,52.71026,13.112778,0.597222673
Wolfslake-West ¬∑ 14621 Schoenwalde-Glien,52.6653301,13.0044727,14621,146,52.567344,13.102341,12.74241752
Bab A 10Nordseit ¬∑ 15749 Brusendorf,52.3084792,13.5101204,15749,157,52.296879,13.630884,8.311964998
Robert-Guthmann-Stra√üe 1 ¬∑ 15713 K√∂nigs Wusterhausen,52.3174625,13.6708387,15713,157,52.296879,13.630884,3.552111646
Bab A 10Suedseit ¬∑ 15749 Brusendorf,52.3084792,13.5101204,15749,157,52.296879,13.630884,8.311964998
Richard-Sorge-Stra√üe 30 ¬∑ 15745 Wildau,52.3145101,13.6322954,15745,157,52.296879,13.630884,1.962835991
A10 BAB Seeberg Ost ¬∑ 15366 Neuenhagen,52.5440456,13.6914553,15366,153,52.592029,14.232376,36.94606926
Bab A10 ¬∑ 14552 Michendorf,52.3001707,13.0422782,14552,145,52.5299,13.213127,28.04991285
A10 Seeberg West ¬∑ 15366 Neuenhagen Bei Berlin,52.5427035,13.6901568,15366,153,52.592029,14.232376,37.05526119
An der BAB 10 ¬∑ 14552 Michendorf,52.3001707,13.0422782,14552,145,52.5299,13.213127,28.04991285
Hubertusallee 1-3 ¬∑ 14193 Berlin,52.4943313,13.2848267,14193,141,52.418925,13.16426,11.70653945
Karl-Marx-Stra√üe 259-26 ¬∑ 12057 Berlin,52.4656258,13.443493,12057,120,52.47974,13.43987,1.588496905
Hohenzollerndamm 41 ¬∑ 10713 Berlin,52.4890545,13.3071127,10713,107,52.495371,13.308887,0.712561327
Hauptstra√üe 91 ¬∑ 12159 Berlin,52.4757594,13.3403787,12159,121,52.474948,13.385563,3.06162268
Letterhausweg 2 ¬∑ 13627 Berlin,52.5343885,13.2830748,13627,136,52.535549,13.300126,1.160494365
Sachsendamm 90-92 ¬∑ 10829 Berlin,52.478635,13.3550828,10829,108,52.488368,13.349555,1.145166115
Bessemer Stra√üe 57 ¬∑ 12103 Berlin,52.4634545,13.3668299,12103,121,52.474948,13.385563,1.80099308
Heilbronner Stra√üe 14-15 ¬∑ 10711 Berlin,52.50199,13.2944487,10711,107,52.495371,13.308887,1.223501784
Hauptstra√üe 86 ¬∑ 12159 Berlin,52.4757594,13.3403787,12159,121,52.474948,13.385563,3.06162268
Kurfuerstendamm 128 ¬∑ 10711 Berlin,52.4957732,13.2876078,10711,107,52.495371,13.308887,1.441253318
Mecklenburgische Stra√üe 76 ¬∑ 10713 Berlin,52.480445,13.3127584,10713,107,52.495371,13.308887,1.680268461
Westfaelische Stra√üe 9-10 ¬∑ 10709 Berlin,52.4944122,13.3022144,10709,107,52.495371,13.308887,0.464139274
Sch√∂neberger Stra√üe / Alboi ¬∑ 12103 Berlin,52.4683568,13.3746218,12103,121,52.474948,13.385563,1.042297301
Buschkrugallee 84-92 ¬∑ 12359 Berlin,52.4558805,13.4495906,12359,123,52.387166,13.4078,8.149315843
Manteuffelstra√üe 6-7 ¬∑ 12103 Berlin,52.4639426,13.3728893,12103,121,52.474948,13.385563,1.494845351
Beusselstra√üe 55 ¬∑ 10553 Berlin,52.5282039,13.3213846,10553,105,52.532441,13.341048,1.411097964
Kaiserdamm 34 ¬∑ 14057 Berlin,52.5098604,13.2771277,14057,140,52.519745,13.269472,1.215085859
Spandauer Damm 151 ¬∑ 14050 Berlin,52.5191374,13.2720041,14050,140,52.519745,13.269472,0.184165425
Karl-Marx-Stra√üe 267 ¬∑ 12057 Berlin,52.465354,13.4432949,12057,120,52.47974,13.43987,1.616383509
Schoeneberger Str 17 ¬∑ 12103 Berlin,52.4703242,13.3717751,12103,121,52.474948,13.385563,1.066073376
Britzer Damm 60-62 ¬∑ 12347 Berlin,52.4569928,13.4363779,12347,123,52.387166,13.4078,8.002570626
Grenzallee 6 ¬∑ 12057 Berlin,52.4694742,13.4621572,12057,120,52.47974,13.43987,1.89253225
Messedamm 6 ¬∑ 14057 Berlin,52.5083841,13.2805899,14057,140,52.519745,13.269472,1.470334088
Blissestra√üe 21 ¬∑ 10713 Berlin,52.4868693,13.3137346,10713,107,52.495371,13.308887,1.000698805
Tempelhofer Weg 10 ¬∑ 12099 Berlin,52.4588706,13.4217484,12099,120,52.47974,13.43987,2.625238738
A 115 ¬∑ 14055 Berlin,52.4937634,13.2662704,14055,140,52.519745,13.269472,2.897136844
Beusselstra√üe 44 ¬∑ 10553 Berlin,52.5282039,13.3213846,10553,105,52.532441,13.341048,1.411097964
Hauptstra√üe 91 ¬∑ 12159 Berlin,52.4757594,13.3403787,12159,121,52.474948,13.385563,3.06162268
Sachsendamm 90-92 ¬∑ 10829 Berlin,52.478635,13.3550828,10829,108,52.488368,13.349555,1.145166115
Hauptstra√üe 86 ¬∑ 12159 Berlin,52.4757594,13.3403787,12159,121,52.474948,13.385563,3.06162268
Bergstra√üe 31/32 ¬∑ 12169 Berlin,52.4555293,13.339803,12169,121,52.474948,13.385563,3.777881507
Schlossstra√üe 63-64 ¬∑ 12165 Berlin,52.4528959,13.3153491,12165,121,52.474948,13.385563,5.351586537
K√∂rnerstra√üe 48 a ¬∑ 12157 Berlin,52.4658033,13.3448464,12157,121,52.474948,13.385563,2.939489727
Zepernicker Chaussee 39 ¬∑ 16321 Bernau,52.6738057,13.5701024,16321,163,52.6814,13.59289,1.753068961
Werner-von-Siemens-Stra√üe ¬∑ 16321 Bernau,52.6874845,13.5672765,16321,163,52.6814,13.59289,1.854354543
Gramzower Stra√üe 1a ¬∑ 17291 Uckerfelde OT Hoheng√ºstow,53.2305588,13.9895159,17291,172,53.09635,13.75996,21.37518686
BAB A11 Buckowsee Ost ¬∑ 16244 Werbellin-Buckowsee,52.8830514,13.7042037,16244,162,52.831867,13.818695,9.564557961
BAB A11 Buckowsee West ¬∑ 16244 Werbellin-Buckowsee,52.8832691,13.7023479,16244,162,52.831867,13.818695,9.679238224